id;latitude;longitude;geometry;name;type;street;city;postcode;housenumber;cuisine;description;operator;website;phone;email
26859342;46.1663865;10.7498706;POINT (10.7498706 46.1663865);Camping Parco Adamello;camp_site;;;;;;;;https://campingparcoadamello.it;+393381919608;
26859590;46.111111;11.048056;POINT (11.048056 46.111111);Lamar;camp_site;Via Selva Faeda;;38070;15;;;;https://laghidilamar.com/;+39 0461 860423;campeggio@laghidilamar.com
26859712;45.7803581;10.9454085;POINT (10.9454085 45.7803581);Polsa;camp_site;;;;;;;;;;
270297544;46.2898551;11.4386015;POINT (11.4386015 46.2898551);Unnamed;hotel;;;;;;;;;;
272337352;46.3518996;11.6311156;POINT (11.6311156 46.3518996);Unnamed;caravan_site;;;;;;;;;;
274085436;46.09396;11.2339457;POINT (11.2339457 46.09396);Albergo Comparsa;hotel;;;;;;;;;;
274085444;46.0958868;11.2346791;POINT (11.2346791 46.0958868);Belvedere;hotel;;;;;;;;;;
282776887;46.3246362;11.0195109;POINT (11.0195109 46.3246362);Agritur Leita;guest_house;Via S. Emerenziana;Tuenno;38019;70;;;;http://www.agriturismo-leita.it/;+39 0463 451372;giovanni.leita@virgilio.it
286290910;46.260541;11.5986885;POINT (11.5986885 46.260541);Baita dell'Alpino;alpine_hut;;;;;;;private;;;
288480188;46.288656;11.4496879;POINT (11.4496879 46.288656);Albergo Garnì Gocciadoro;guest_house;;;;;;;;;;
293127768;46.3361897;10.8924208;POINT (10.8924208 46.3361897);Hotel Monclassico;hotel;Via Nazionale;Monclassico;38020;582a;;;;https://www.hotelmonclassico.com/;(+39) 0463 970290;hotelmonclassicodimaro@gmail.com
299924943;46.119308;10.806969;POINT (10.806969 46.119308);Albergo Brenta;hotel;Val d'Algogne;Bleggio Inferiore;38071;;;;;https://www.albergobrenta.it;+393474449965;albergobrenta@hotmail.it
299927723;46.1158602;10.8085216;POINT (10.8085216 46.1158602);Rifugio Ghedina;alpine_hut;;;38070;;;;;https://www.trentinorifugi.com/index.php?bsclef=schede_rifugi&ex=html&viewnews=ok&ln=it&id=76&catid=6;+39 0465 321808;
303781634;46.3173264;11.5973669;POINT (11.5973669 46.3173264);Albergo Vinella;hotel;;;;;;;;;;
303826367;46.3117127;11.60182;POINT (11.60182 46.3117127);Active Hotel Rosat;hotel;Via Garibaldi;Predazzo;38037;;;;;https://www.activehotelrosat.it/;+39 0462 501239;info@activehotelrosat.it
303828156;46.3092005;11.6021818;POINT (11.6021818 46.3092005);Sass Maor;hotel;;;;;;;;;;
303828160;46.3110803;11.6026669;POINT (11.6026669 46.3110803);Ancora;hotel;;;;;;;;;;
303832089;46.307129;11.6001663;POINT (11.6001663 46.307129);Liz;hotel;;;;;;;;;;
303832099;46.3065591;11.598401;POINT (11.598401 46.3065591);Majestic;hotel;;;;;;;;;;
304633078;46.2316634;10.8255392;POINT (10.8255392 46.2316634);Hotel La Montanara;hotel;;;;;;;;;;
305506280;46.4207905;11.6753206;POINT (11.6753206 46.4207905);Hotel Dolasilla;hotel;Strada Neva;Vigo di Fassa;38039;4;;;;https://hoteldolasilla.com;+39 0462 764159;info@hoteldolasilla.com
305506285;46.4188185;11.6748934;POINT (11.6748934 46.4188185);Hotel Cristallo;hotel;Strada Neva;Vigo di Fassa;38039;40;;;;;+39 0462 764041;
305506288;46.4195711;11.675226;POINT (11.675226 46.4195711);Hotel Garni Enrosadira;hotel;Strada Neva;Vigo di Fassa;38039;28;;;;https://www.garnienrosadira.it/;+39 0462 764602;info@garnienrosadira.it
305506291;46.4192615;11.674348;POINT (11.674348 46.4192615);Hotel Latemar;hotel;;;;;;;;;;
305506305;46.41842;11.6728619;POINT (11.6728619 46.41842);Hotel Sole;hotel;Strada de Semal;Vigo di Fassa;38036;12;;;;http://www.hotel-sonne-sole.it/;+39 0462 764042;info@hotel-sonne-sole.it
305506966;46.419859;11.6726329;POINT (11.6726329 46.419859);Hotel Rosa;hotel;Strada Rezia;Vigo di Fassa;38039;5;;;;http://www.hotelrosa.biz/it/;+39 0462 764486;info@hotelrosa.biz
312152850;45.8693712;10.8765605;POINT (10.8765605 45.8693712);Centrale;hotel;Piazza Goethe;;;14;;;;https://www.hotelcentraletorbole.it/;+39 0464 505234;
317054679;46.008633;11.3062959;POINT (11.3062959 46.008633);Hotel Daniela;hotel;Viale Venezia;Levico Terme;38056;3;;;;;;
317522892;46.0073535;11.3063993;POINT (11.3063993 46.0073535);Albergo Villa Flora;hotel;;;;;;;;;;
317526677;45.9886994;11.3006401;POINT (11.3006401 45.9886994);Paoli Hotel - Antica Trattoria alla Vedova;hotel;;;;;;;;;;
322714918;46.3227143;10.8722156;POINT (10.8722156 46.3227143);Ai Bonetei;guest_house;;;;;;;;;;
333327990;46.0130251;11.2973785;POINT (11.2973785 46.0130251);Hotel Concordia;hotel;;;;;;;;;;
333786640;46.3015001;10.811099;POINT (10.811099 46.3015001);TH 1400;hotel;Via per Marilleva;Mezzana;38020;;;;;https://www.hotelmarilleva1400.it/;(+39) 0463796544;1400@th-resorts.com
333790689;46.3268441;10.8727065;POINT (10.8727065 46.3268441);Albergo Dimaro;hotel;Via Campiglio;Dimaro Folgarida;38025;78;;;;https://albergodimaro.it/;(+39) 0463 974375;info@dimarohotel.it
333791067;46.3255873;10.8746899;POINT (10.8746899 46.3255873);Garnì Val Meledrio;guest_house;;;;;;;;;;
333791378;46.2600801;10.8551274;POINT (10.8551274 46.2600801);Albergo Genzianella;hotel;;;;;;;;;;
333791571;46.2306064;10.8267493;POINT (10.8267493 46.2306064);Majestic Mountain;hotel;;;;;;;;;;
338894655;46.1977206;11.8648297;POINT (11.8648297 46.1977206);"Albergo ""Al Cacciatore""";hotel;;;;;;;;;;
344396150;46.0106528;11.2997356;POINT (11.2997356 46.0106528);Albergo Aurora;hotel;;;;;;;;;;
345701106;46.012125;11.2902546;POINT (11.2902546 46.012125);Hotel Sport;hotel;;;;;;;;;;
354596380;46.0141956;11.2963314;POINT (11.2963314 46.0141956);Albergo Al Salus;hotel;;;;;;;;;;
354927596;46.0162459;11.2920666;POINT (11.2920666 46.0162459);Hotel Miralago;hotel;;;;;;;;;;
364822145;46.0711429;11.1241736;POINT (11.1241736 46.0711429);Hotel America;hotel;Via Torre Verde;Trento;38122;52;;;Hotel America Srl.;http://www.hotelamerica.it/;+39 0461 983010;info@hotelamerica.it
367891774;45.9676548;11.2269514;POINT (11.2269514 45.9676548);Albergo al Bosco;hotel;;;;;;;;;;
393363161;46.1764081;11.8366209;POINT (11.8366209 46.1764081);Castel Pietra;hotel;;;;;;;;;;
412369294;46.1337358;10.7589376;POINT (10.7589376 46.1337358);Hotel Rio;hotel;;;;;;;;;;
414978800;46.3432414;10.7019644;POINT (10.7019644 46.3432414);Hotel Chalet Genziana;hotel;Via al Sant;Celledizzo;38024;2;;;;https://chaletgenziana.it/;(+39) 0463.746050;info@chaletgenziana.it
414988153;46.3513728;10.6942137;POINT (10.6942137 46.3513728);Hotel Cevedale;hotel;Via Roma;Cogolo;38024;33;;;;https://www.hotelcevedale.it;(+39) 0463 754067;info@hotelcevedale.it
414997614;46.3545353;10.6899611;POINT (10.6899611 46.3545353);Hotel Ortles;hotel;Via Giovanni Casarotti;Cogolo;38024;66;;;;https://www.hotelortles.it/;(+39) 0463 754073;info@hotelortles.it
414997615;46.355823;10.6898114;POINT (10.6898114 46.355823);Hotel Gran Zebrù;hotel;Via Giovanni Casarotti;Cogolo;38024;92;;;;https://www.hotelgranzebru.com/it;(+39) 0463754433;INFO@HOTELGRANZEBRU.COM
414997616;46.3557804;10.6908833;POINT (10.6908833 46.3557804);Kristiania Leading Nature & Wellness Resort;hotel;Via di Sant'Antonio;Cogolo;38024;18;;;;https://www.hotelkristiania.it/;(+39) 0463 754157;info@hotelkristiania.it
415504648;46.3263804;10.8692858;POINT (10.8692858 46.3263804);Albergo Serena;hotel;Via Gole;Dimaro;38025;90;;;;https://serena-hotel.com/;(+39) 0463 974974;info@serena-hotel.com
417322481;46.0734662;11.3881872;POINT (11.3881872 46.0734662);Rifugio Serot;alpine_hut;;;;;;;;https://www.rifugioserot.eu/;+39 0461 764690;info@rifugioserot.eu
417327450;46.0645666;11.0952081;POINT (11.0952081 46.0645666);Agritur Depedri;hostel;Via alla Ca;;;71;;;;http://www.viaggioin.com/agriturismo-agritur-depedri-luciano-trento-289355;+39 0461 235438;
417903388;46.0124489;11.3000724;POINT (11.3000724 46.0124489);Albergo Lucia;hotel;;;;;;;;;;
426311727;46.141932;10.9643749;POINT (10.9643749 46.141932);Belvedere;hotel;Via Nazionale;Molveno;38018;9;;;;http://www.belvedereonline.com/;+39 0461 586933;info@belvedereonline.com
426311728;46.1428396;10.9610717;POINT (10.9610717 46.1428396);Olympia;hotel;Via Dolomiti;Molveno;38018;1;;;;http://www.olympiamolveno.it/;+39 0461 586961;info@olympiamolveno.it
427547574;46.1419977;10.9631127;POINT (10.9631127 46.1419977);Europa;hotel;Via Nazionale;Molveno;38018;13;;;;http://www.europamolveno.it/;+39 0461 586937;hotel@europamolveno.it
427547578;46.14127;10.9635213;POINT (10.9635213 46.14127);Lido;hotel;Via Lungolago;Molveno;38018;10;;;;http://www.hotel-lido.it/;+39 0461 586932;info@hotel-lido.it
447910526;46.2159242;11.1943338;POINT (11.1943338 46.2159242);Rifugio Sauch;alpine_hut;Località Sauch;Giovo;38030;;;;;;+39 0461 683768;rifugiosauch@hotmail.it
448098224;46.486347;11.800285;POINT (11.800285 46.486347);Hotel Pordoi;hotel;Strada del Pordoi;;38036;126;;;;http://www.hotelpordoi.eu;;
455703644;46.1706042;10.931698;POINT (10.931698 46.1706042);Rifugio Croz dell'Altissimo;alpine_hut;;;38018;;;;;https://www.rifugiocrozaltissimo.it/;+39 339 7982922, +39 347 1184459;info@rifugiocrozaltissimo.it
457135946;45.7346986;10.9418634;POINT (10.9418634 45.7346986);Albergo Vignola;guest_house;;;;;;;;;;
459656401;46.1446324;10.9672354;POINT (10.9672354 46.1446324);Florida;hotel;Via Belvedere;Molveno;38018;25;;;;http://www.hotel-florida.it;+39 0461 586905;info@hotel-florida.it
459656414;46.1441867;10.9683936;POINT (10.9683936 46.1441867);Aurora;hotel;Via Belvedere;Molveno;38018;8;;;;http://www.hotelauroramolveno.com/;+39 0461 586946;aurora.molveno@virgilio.it
459656417;46.1443515;10.9668565;POINT (10.9668565 46.1443515);Lory;hotel;Via Belvedere;Molveno;38018;15;;;;http://www.dolomieten-hotel.com/;+39 0461 586906;info@hotellory.com
459656422;46.1401359;10.9610822;POINT (10.9610822 46.1401359);Alle Dolomiti;hotel;Via Lungolago;Molveno;38018;18;;;;https://www.alledolomiti.com/;+39 0461 586057;info@alledolomiti.com
459656423;46.1390903;10.9601139;POINT (10.9601139 46.1390903);Bellariva;hotel;Via Lungolago;Molveno;38018;25;;;;http://www.bellariva.com/;+39 0461 586338;info@gardenhotelbellariva.com
461967770;46.3377661;10.8926709;POINT (10.8926709 46.3377661);Ariston;hotel;Via di Novalina;Monclassico;38020;106;;;;https://www.hotelaristonvaldisole.com/;(+39) 0463 974967;info@hotelaristonvaldisole.com
462264536;46.1842756;11.0289181;POINT (11.0289181 46.1842756);Albergo Slosser;hotel;;;;;;;;;;
462264537;46.1847406;11.0303158;POINT (11.0303158 46.1847406);Albergo Aurora;hotel;Via della viola;Cavedago;38010;6;;;;https://www.albergoauroracavedago.com/index.php/it/;;
462264539;46.1855504;11.0331585;POINT (11.0331585 46.1855504);Hotel Olisamir;hotel;;;;;;;;;;
482014014;46.1123842;11.2342721;POINT (11.2342721 46.1123842);Scoiattolo;hotel;;;;;;;;;;
497093888;46.0395932;11.2347482;POINT (11.2347482 46.0395932);Hotel Bar Rubino;hotel;;;;;;;;;;
497093922;46.0394621;11.2350158;POINT (11.2350158 46.0394621);Albergo San Cristoforo;hotel;;;;;;;;;;
497239623;46.0046508;11.2465751;POINT (11.2465751 46.0046508);Micamada;hotel;;;;;;;;;;
511138884;45.8845039;10.8386117;POINT (10.8386117 45.8845039);Hotel Europa;hotel;;;;;;;;;;
511138885;45.8847606;10.8387888;POINT (10.8387888 45.8847606);Hotel Portici;hotel;;;;;;;;;;
511198005;45.9174613;10.8328756;POINT (10.8328756 45.9174613);Hotel ristorante Antica Croce;hotel;Via dei Laghi;Tenno;38060;1;;;;https://gardaslowemotion.it/it/;+39 0464 500620;info@gardaslowemotion.it
515904641;46.1972252;11.2055716;POINT (11.2055716 46.1972252);Rifugio Lago Santo;hostel;Località Lago Santo;;38034;1;;;;https://www.rifugiolagosanto.it/;+39 0461 528223;
520622911;46.1716738;11.2200111;POINT (11.2200111 46.1716738);Europa;hotel;;;;;;;;;;
528256120;46.1703012;11.2148258;POINT (11.2148258 46.1703012);Agritur Maso Val Fraja;guest_house;;;;;;;;http://www.masovalfraia.it/;;
536471643;46.3327519;11.0527049;POINT (11.0527049 46.3327519);Agritur Renetta;guest_house;;;;;;;;;;
554849478;46.1612616;10.9262935;POINT (10.9262935 46.1612616);Rifugio Selvata;alpine_hut;;;;;;;;http://www.rifugioselvata.it/;+39 0461 1862900, +39 340 8231972;ddale@hotmail.it
556932213;46.0619672;11.1515728;POINT (11.1515728 46.0619672);Cantina Ester;guest_house;;;;;;;;;;
557169206;46.0686822;11.1202489;POINT (11.1202489 46.0686822);Accademia;hotel;Vicolo Colico;Trento;38122;4;;;;;;
562715340;46.1385343;11.1139574;POINT (11.1139574 46.1385343);Pizzeria Corona;hotel;Piazza Manci;Lavis;38015;2;"pizza;regional";;;;;
563398204;46.0677859;11.1212687;POINT (11.1212687 46.0677859);Albergo Venezia;hotel;;;;;;;;;;
563398648;46.067946;11.1212548;POINT (11.1212548 46.067946);Albergo Venezia;hotel;;;;;;;;;;
568433876;46.0115946;11.3146289;POINT (11.3146289 46.0115946);Hotel Bellaria;hotel;;;;;;;;;;
568486143;46.0211998;10.9426516;POINT (10.9426516 46.0211998);B&B Giuly;guest_house;;;;;;;;;;
570685008;46.0600275;11.2370154;POINT (11.2370154 46.0600275);Turismo;hotel;;;;;;;;;;
570699486;46.0396592;11.2422786;POINT (11.2422786 46.0396592);Meridiana;hotel;;;;;;;;;;
587759192;46.1084141;11.302608;POINT (11.302608 46.1084141);Albergo Centrale;hotel;;;;;;;;;;
604974291;46.2163118;11.6233505;POINT (11.6233505 46.2163118);Rifugio Refavaie;guest_house;;;;;;;;https://www.rifugiorefavaie.com/;;
614841348;46.3539348;10.9140737;POINT (10.9140737 46.3539348);Henriette;hotel;Via Trento;Malé;38027;36;;;;https://www.hotelhenriette.it/;(+39) 0463 902110;info@hotelhenriette.it
616524564;46.3994983;10.8482671;POINT (10.8482671 46.3994983);Hotel Miramonti;hotel;;;;;;;;;;
616524592;46.3734834;10.8783777;POINT (10.8783777 46.3734834);Residence Bonetti;chalet;;;;;;;;;;
616524645;46.3610255;10.9285375;POINT (10.9285375 46.3610255);Pippo Hotel;hotel;Via Don Pietro Silvestri;Terzolas;38027;32;;;;https://www.pippohotel.it/;+39 0463 901207;
616524688;46.4084443;10.797753;POINT (10.797753 46.4084443);Al Molin;hotel;;;;;regional;;;https://www.almolin.it/;;
616524760;46.4078861;10.8109015;POINT (10.8109015 46.4078861);Albergo Posta;hotel;;;;;;;;;;
633009190;45.8859325;10.842617;POINT (10.842617 45.8859325);Ostello Benacus;hostel;Piazza Cavour;Riva del Garda;38066;10;;;;https://www.ostelloriva.com/;+39 0464 554911;info@ostelloriva.com
648461730;46.3000336;10.8643738;POINT (10.8643738 46.3000336);Hotel Fantelli;hotel;;;;;;;;;;
648490538;46.3003628;10.8638219;POINT (10.8638219 46.3003628);Hotel Alaska;hotel;;;;;;;;;;
653366711;46.177539;11.1673988;POINT (11.1673988 46.177539);Hotel Fior di Bosco;hotel;Masen;;38030;;;;;http://www.hotelfiordibosco.it;+39 0461 695008;
673194565;46.0469105;11.4115734;POINT (11.4115734 46.0469105);Agriturismo Montibeller;hotel;;;;;;;;http://www.agriturmontibeller.it/;;
697859347;46.2014537;11.7928516;POINT (11.7928516 46.2014537);Rifugio Miralago;alpine_hut;Lago di Calaita;;;;;;Stefenon Iginio & C. s.n.c.;www.miralagocalaita.it;+39 0439 1992699;
715778006;46.2179527;11.8769754;POINT (11.8769754 46.2179527);Albergo La Ritonda;hotel;;;;;;;;;;
715778013;46.2171599;11.8783206;POINT (11.8783206 46.2171599);Albergo Cant del Gal;hotel;;;;;;extra: Birra Dolomiti (blond, red, unfiltered);;;;
722215937;46.2963776;11.7819806;POINT (11.7819806 46.2963776);Hotel Venezia;hotel;;;;;;;;;;
722738557;46.2613758;11.7608256;POINT (11.7608256 46.2613758);Malga Valcigolera;alpine_hut;;;;;;;;;;
729605637;45.9336265;11.0946354;POINT (11.0946354 45.9336265);Villaggio Hotel Aquila;hotel;Via 3 Novembre;Calliano;38060;11;;;;;+39 0464 83 41 10;
738406332;45.9212124;10.8920781;POINT (10.8920781 45.9212124);Guesthouse I;chalet;;;;;;;;https://www.guesthouse-arco.com/de_gh1.php;;
739660877;46.1514584;11.8596467;POINT (11.8596467 46.1514584);Rifugio Caltena;alpine_hut;;;;;;;;;;
748785558;45.8171784;10.9548487;POINT (10.9548487 45.8171784);Hotel Zeni;hotel;Via Roma;Brentonico;;16;;;;;;
758777273;46.2643339;11.8014593;POINT (11.8014593 46.2643339);Hotel Belvedere;hotel;;;;;;;;;;
758777596;46.2618907;11.8023262;POINT (11.8023262 46.2618907);Hotel Dolomiti;hotel;;;;;;;;;;
758777631;46.2636635;11.8011693;POINT (11.8011693 46.2636635);Unnamed;hotel;;;;;;;;;;
758777694;46.2635277;11.803156;POINT (11.803156 46.2635277);Hotel Des Alpes;hotel;;;;;;;;;;
758778016;46.2619963;11.8015574;POINT (11.8015574 46.2619963);Hotel Cima Rosetta;hotel;;;;;;;;;;
758778165;46.2605604;11.8037257;POINT (11.8037257 46.2605604);Unnamed;hotel;;;;;;;;;;
758778261;46.2610836;11.800074;POINT (11.800074 46.2610836);Unnamed;hotel;;;;;;;;;;
758778410;46.2662172;11.8025744;POINT (11.8025744 46.2662172);Unnamed;hotel;;;;;;;;;;
766502251;45.9437439;11.2483994;POINT (11.2483994 45.9437439);Hotel Monte Rust;hotel;;;;;;;;;;
778958662;46.0138343;11.3015021;POINT (11.3015021 46.0138343);Hotel Aaritz;hotel;;;;;;;;;;
778961197;46.0137916;11.3026609;POINT (11.3026609 46.0137916);Albergo Acler;hotel;;;;;;;;;;
799244023;46.0113165;11.3005891;POINT (11.3005891 46.0113165);Hotel Romanda;hotel;;;;;;;;;;
799244067;46.0143514;11.3017351;POINT (11.3017351 46.0143514);Albergo Claudia;hotel;;;;;;;;;;
799244207;46.0112845;11.3000651;POINT (11.3000651 46.0112845);Hotel Antica Rosa;hotel;;;;;;;;;;
799244470;46.0137503;11.3021479;POINT (11.3021479 46.0137503);Albergo Sandro;hotel;;;;;;;;;;
799244877;46.0143148;11.3024259;POINT (11.3024259 46.0143148);Hotel Cristallo;hotel;;;;;;;;;;
802567867;46.2796541;11.6484818;POINT (11.6484818 46.2796541);Agritur Malga Valmaggiore;alpine_hut;;;;;alpine_hut;;;;;
803490568;45.8861891;10.8407161;POINT (10.8407161 45.8861891);Ancora;hotel;;;;;;;;;;
812369976;45.8835673;10.8577;POINT (10.8577 45.8835673);Villa Rina;guest_house;Via Belluno;Riva del Garda;38066;13;;;;;;
815521332;46.2302361;10.8267762;POINT (10.8267762 46.2302361);Hotel St. Hubertus;hotel;;;;;;;;;;
822669028;46.1412572;10.9667355;POINT (10.9667355 46.1412572);Du Lac;hotel;Via Nazionale;Molveno;38018;4;;;;http://www.hoteldulac.it/;+39 0461 586965;info@hoteldulac.it
822669069;46.3505058;11.0886217;POINT (11.0886217 46.3505058);Hotel Miraval;hotel;Via G. Marconi;Coredo;38012;12;;;;https://www.miravalhotel.it;+39 0463 536 141;info@miravalhotel.it
846645382;46.3951901;11.1473119;POINT (11.1473119 46.3951901);Stella Alpina;guest_house;;;;;;;;;;
859538663;45.9406609;11.2516443;POINT (11.2516443 45.9406609);Astoria;hotel;Via Trento;;;;;;;;;
859538664;45.9408372;11.2509037;POINT (11.2509037 45.9408372);Bertoldi;hotel;;;;;;;;;;
859538671;45.9417205;11.2521997;POINT (11.2521997 45.9417205);Da Villa;hotel;;;;;;;;;;
859538674;45.9420573;11.2517639;POINT (11.2517639 45.9420573);Villa Maria;hotel;;;;;;;;;;
859538685;45.9415561;11.251368;POINT (11.251368 45.9415561);Esperia;hotel;;;;;;;;;;
861289099;45.8694857;10.8753011;POINT (10.8753011 45.8694857);Stella;hotel;Via Strada Granda;;;104;;;;http://villastella.it/;+39 0464 505354;info@villastella.it
861289107;46.0730669;11.1038947;POINT (11.1038947 46.0730669);Garni San Giorgio della scala;hotel;Via Brescia;;;133;;;;https://www.garnisangiorgio.it/;+39 0461 238848;
870414524;46.2648324;11.8022402;POINT (11.8022402 46.2648324);Paladin;hotel;;;;;;;;;;
874276711;46.0680641;11.1214788;POINT (11.1214788 46.0680641);B&B Al Duomo di Trento;guest_house;Via Rodolfo Belenzani;Trento;38122;47;;;;http://www.bedalduomoditrento.it/;;info@bedalduomoditrento.it
890154413;46.3339781;10.8877193;POINT (10.8877193 46.3339781);Holiday;hotel;;;;;;;;;;
902467847;45.9152056;10.904247;POINT (10.904247 45.9152056);Agritur Michelotti;guest_house;;;;;;;;https://www.agriturmichelotti.it/default.htm;+39 0464 516272;info@agriturmichelotti.it
902470913;45.9149523;10.9047411;POINT (10.9047411 45.9149523);GardaStivo;guest_house;Via Soccesure;Bolognano;38062;1;;;;https://www.appartamentigardastivo.com/;;info@appartamentigardastivo.com
913944508;45.8916331;10.6020197;POINT (10.6020197 45.8916331);Albergo Condino;hotel;;;;;;;;;;
915835764;45.8819094;10.8585565;POINT (10.8585565 45.8819094);Ambassador Suite Hotel;hotel;;;;;;;;;;
918164445;46.1947677;11.6800833;POINT (11.6800833 46.1947677);Highlander Pub;guest_house;;;;;;;;;;
918935666;46.1678509;11.1140406;POINT (11.1140406 46.1678509);Camping Moser;camp_site;;;;;;;;;;
918957461;46.1649408;11.112481;POINT (11.112481 46.1649408);Hotel Ristorante Alla Nave;hotel;Via Nazionale;Nave San Felice;38015;29;"regional;pizza";;Famiglia Battisti;http://www.hotelallanave.it/;+39 0461 870111;info@hotelallanave.it
926736174;45.8849541;10.8397732;POINT (10.8397732 45.8849541);Hotel Centrale;hotel;Piazza Tre Novembre;Riva del Garda;;27;italian;;;;+39 0464 552344;
928985740;46.3773821;11.6627036;POINT (11.6627036 46.3773821);Catinaccio;hotel;;;;;;;;;;
931628346;46.174765;11.2229447;POINT (11.2229447 46.174765);Hotel al Caminetto;hotel;;;;;;;;;;
938775603;45.875178;10.8726262;POINT (10.8726262 45.875178);Mecki's apartments;guest_house;Via Giacomo Matteotti;Nago-Torbole;38069;114;;;;https://www.meckiapartments.it/;;info@meckisapartments.it
943372584;46.3651535;11.0354898;POINT (11.0354898 46.3651535);Hotel Cles;hotel;Piazza Navarrino;Cles;38023;7;;;;http://www.hotelcles.com/;+39 0463 421300;info@albergocles.com
944507665;46.2532203;11.8005878;POINT (11.8005878 46.2532203);Unnamed;caravan_site;;;;;;;;;;
946493040;46.1342502;11.2485664;POINT (11.2485664 46.1342502);Hotel Krone;hotel;;;;;;;;;;
949638303;46.3921636;11.666542;POINT (11.666542 46.3921636);Hotel Al Lago;hotel;Strada de Pont;Soraga di Fassa;38030;4;;;;https://www.hotelallago.it/;+39 0462 768127;info@hotelallago.it
949638307;46.3922536;11.6669736;POINT (11.6669736 46.3922536);de Fronz;hotel;Strada de Pont;Soraga di Fassa;38030;35;;;;https://www.hoteldefronz.it/;+39 0462 768222;info@hoteldefronz.it
955304894;46.0147921;11.1326205;POINT (11.1326205 46.0147921);Best Western Hotel Adige;hotel;Via Pomeranos;Mattarello;38123;10;;;;https://www.adigehotel.it/;+39 0461 944545;adige.tn@bestwestern.it
961476822;45.9060089;10.7278624;POINT (10.7278624 45.9060089);Ca' ai Volt;chalet;Via Ventisette Agosto;Ledro;38067;6;;;;https://www.valleledro.it/;;
963166943;46.0134537;11.2975927;POINT (11.2975927 46.0134537);Hotel Villa Regina;hotel;Viale Vittorio Emanuele;Levico Terme;38056;8;;;;;;
984409839;45.8656825;10.9618948;POINT (10.9618948 45.8656825);La Cort de Nona Rosa;guest_house;Via dei Mille;Nomesino;38065;8;;;;;+39 0464 917284;
1024986466;46.0578113;10.7510743;POINT (10.7510743 46.0578113);Albergo alle Alpi;hotel;Via Papa Giovanni Ventitreesimo;Tre Ville;38070;19;italian;;Roncaia di Paolo Simoni & C. snc;;+390465321289;albergoallealpi@alice.it
1097053451;46.2611971;10.5869187;POINT (10.5869187 46.2611971);Resident Top;hotel;;;;;;;;;;
1098424461;46.353426;10.9139433;POINT (10.9139433 46.353426);Hotel Sole;hotel;Via Guglielmo Marconi;Malé;38027;3;;;;http://www.trentinohotelsole.it;(+39) 0463 902936;info@trentinohotelsole.it
1100148745;46.2693771;11.0344652;POINT (11.0344652 46.2693771);Casa delle fate;guest_house;Via Castel La Santa;Termon;38010;4;;;;;;
1100566731;46.3074896;10.7381994;POINT (10.7381994 46.3074896);Il Maniero;hotel;;;;;;;;https://www.ilmanierovaldisole.it/;;
1101757998;46.1081538;11.3021408;POINT (11.3021408 46.1081538);Albergo Alpino;hotel;;;;;;;;;;
1103110831;46.2576619;11.0355935;POINT (11.0355935 46.2576619);Albergo Pezzi;hotel;;;;;;;;;;
1103418477;46.1298143;11.354238;POINT (11.354238 46.1298143);Rosa Alpina;hotel;;;;;;;;;;
1103418478;46.1172063;11.3632082;POINT (11.3632082 46.1172063);Malga Pletzn;guest_house;;;;;;;;;;
1127046857;46.1332471;10.9684542;POINT (10.9684542 46.1332471);Grand Hotel Molveno;hotel;Via Bettega;Molveno;38018;18;;;;http://www.grandhotelmolveno.it/;+39 0461 586934;info@grandhotelmolveno.it
1154395699;45.9085567;11.0405065;POINT (11.0405065 45.9085567);Sant'Ilario;hotel;;;;;;;;;;
1170533285;46.2150173;11.1196054;POINT (11.1196054 46.2150173);Hotel Caffè Centrale;hotel;;;;;;;;;;
1211111977;46.4175633;11.6768388;POINT (11.6768388 46.4175633);Majon Ladina;chalet;;;;;;;;http://www.majonladina.com;;
1211135256;46.418061;11.6774373;POINT (11.6774373 46.418061);Hotel Al Piccolo;hotel;Strada Neva;Vigo di Fassa;38039;70;;;;https://www.alpiccolohotel.it/;;info@alpiccolohotel.it
1212500269;46.3849889;11.7980503;POINT (11.7980503 46.3849889);Chalet Cima Uomo;alpine_hut;;;;;;;;;;
1228854091;46.4282491;11.6842344;POINT (11.6842344 46.4282491);Garni Roseal;hotel;Strada Dolomites;Pozza di Fassa;38036;62;;;;;;
1239897188;46.2618423;11.3366588;POINT (11.3366588 46.2618423);Hotel Dolomiti;hotel;;;;;;;;;;
1257220965;46.2929852;11.4562709;POINT (11.4562709 46.2929852);Albergo Ristorante Stella;hotel;;;;;;;;;;
1257221199;46.2925262;11.4587886;POINT (11.4587886 46.2925262);Hotel La Stua;hotel;Via Balderoni;;;2;italian;;;;+39 0462 340235;info@hotellastua.com
1286788720;46.2916887;11.4587684;POINT (11.4587684 46.2916887);Hotel Orso Grigio;hotel;;;;;;;;;;
1346728768;46.1679395;11.1145988;POINT (11.1145988 46.1679395);Hotel Moser;hotel;;;;;;;;;;
1358197806;45.8796684;10.8556627;POINT (10.8556627 45.8796684);Hotel Oasi;hotel;;;;;;;;;;
1358301426;45.9610089;11.2971803;POINT (11.2971803 45.9610089);Albergo Monterovere;hotel;;;;;;;;;;
1361631209;46.1832514;11.9462178;POINT (11.9462178 46.1832514);"Rifugio Forestale ""Val delle Moneghe""";alpine_hut;;;;;;;;;;
1365209549;45.9612515;11.3178504;POINT (11.3178504 45.9612515);Malga Palu';chalet;;;;;;;;;;
1366770314;45.9185691;10.8869032;POINT (10.8869032 45.9185691);Hotel Al Sole;hotel;;;;;;;;;;
1408150276;45.9128573;10.6197057;POINT (10.6197057 45.9128573);Hotel Aurora;hotel;;;;;;;;;;
1411029986;46.2513352;11.1412315;POINT (11.1412315 46.2513352);Malga Kraun;alpine_hut;;;;;;;;http://www.rifugiomalgakraun.it/;+39 335 8173485;info@rifugiomalgakraun.it
1431628396;45.919773;10.8838955;POINT (10.8838955 45.919773);Pace 1954 Hotel;hotel;Via Vergolano;Arco;38062;42;;;;https://www.hotelpace.net/;+39 0464 516398;info@pace1954hotel.com
1438388423;46.3271463;11.0217936;POINT (11.0217936 46.3271463);Garni Castel Ferari;guest_house;Via Moscovia;Tuenno;38019;6;;;;http://www.garnicastelferari.it;+39 0463 451770;garnicastelferari@virgilio.it
1445808056;45.920606;10.870634;POINT (10.870634 45.920606);Appartamenti Da Gianni;guest_house;;;;;;;;;;
1468556028;46.3196963;11.5027282;POINT (11.5027282 46.3196963);"B&B ""Le Càore""";guest_house;;;;;;;;;;
1488473482;46.243131;11.0635679;POINT (11.0635679 46.243131);Pra da Lares;guest_house;Via Santa Margherita;Ton;38010;10b;;;;http://www.pradalares.com/;+39 335 1732948;info@pradalares.com
1488553668;45.8835749;10.8526131;POINT (10.8526131 45.8835749);Villa Aranci;hotel;;;;25;;;;https://www.villaaranci.it/;+39 0464 552715;
1489684356;46.0810479;11.0434159;POINT (11.0434159 46.0810479);Hotel San Leonardo;hotel;;;;;;;;;;
1511955506;46.1439992;10.9653965;POINT (10.9653965 46.1439992);Garnì Villanova;hotel;Via Giuseppe Garibaldi;Molveno;38018;19;;;;http://www.hotelvillanova.it/;+39 0461 586347;info@hotelvillanova.it
1512648044;46.1424337;10.9644701;POINT (10.9644701 46.1424337);Alexander;hotel;Piazza Scuole;Molveno;38018;7;;;;http://www.alexandermolveno.com/;+39 0461 586928;info@alexandermolveno.com
1512648049;46.1424132;10.9650224;POINT (10.9650224 46.1424132);Miralago;hotel;Piazza Scuole;Molveno;38018;3;;;;http://www.miralagohotel.com/;+39 0461 586935;info@miralagohotel.com
1514593518;46.0665206;11.1203804;POINT (11.1203804 46.0665206);B&B Margot;hotel;Via Andrea Maffei;Trento;38122;1;;;B&B Margot;http://www.bbmargot.com/;+39 373 7738322;info@bbmargot.com
1523178002;46.1423626;10.9626826;POINT (10.9626826 46.1423626);Alpotel Venezia;hotel;Via Nazionale;Molveno;38018;10;;;;http://www.alpotel.it/;+39 0461 586920;info@alpotel.it
1523178007;46.1428617;10.9629097;POINT (10.9629097 46.1428617);Panorama;hotel;Via Nazionale;Molveno;38018;45;;;;http://www.panoramamolveno.com/;+39 0461 586929;info@panoramamolveno.com
1523289656;46.1406606;10.9657571;POINT (10.9657571 46.1406606);Des Alpes;hotel;Via Nazionale;Molveno;38018;7;;;;http://www.desalpes.it/;+39 0461 586983;info@desalpes.it
1523289658;46.1426898;10.9620986;POINT (10.9620986 46.1426898);Excelsior;hotel;Via Nazionale;Molveno;38018;41;;;;http://www.molveno-excelsior.it/;+39 0461 586921;info@molveno-excelsior.it
1523289660;46.140352;10.9704487;POINT (10.9704487 46.140352);Fontanella;hotel;Via Bettega;Molveno;38018;3;;;;http://www.hfontanella.it/;+39 0461 586955;hfontanella@tin.it
1523289669;46.136831;10.9697346;POINT (10.9697346 46.136831);Lago Park Hotel;hotel;Via Bettega;Molveno;38018;12;;;;https://www.dolomitiparkhotelmolveno.it/home.html;+39 0461 586030;info@dolomitiparkhotelmolveno.it
1523289680;46.1437835;10.9677169;POINT (10.9677169 46.1437835);Londra;hotel;Via Nazionale;Molveno;38018;34;;;;http://www.londramolveno.it/;+39 0461 586943;hotel@londramolveno.it
1523289682;46.1419275;10.9620962;POINT (10.9620962 46.1419275);Miramonti;hotel;;;;;;;;;;
1523289684;46.1419526;10.9624577;POINT (10.9624577 46.1419526);Negritella;hotel;Via Nazionale;Molveno;38018;15;;;;http://www.hotelnegritella.com/;+39 0461 586942;info@hotelnegritella.com
1523289687;46.1424345;10.9615645;POINT (10.9615645 46.1424345);Residence Villa Erica;hotel;Via Nazionale;Molveno;38018;15a;;;;http://www.residencevillaerica.it/;+39 0461 586941;
1524975590;46.141802;10.9670536;POINT (10.9670536 46.141802);Ariston;hotel;Via Lungolago;Molveno;38018;3;;;;http://www.aristonmolveno.it/;+39 0461 586907;hotel@aristonmolveno.it
1524975604;46.1403143;10.9651288;POINT (10.9651288 46.1403143);Gloria;hotel;Via Lungolago;Molveno;38018;15;;;;http://www.gloriahotel.it/;+39 0461 586962;hotelgloria@tin.it
1524975607;46.1407422;10.9648108;POINT (10.9648108 46.1407422);Italia;hotel;Via Lungolago;Molveno;38018;9;;;;http://www.albergoitaliamolveno.it/;+39 0461 586915;info@albergoitaliamolveno.it
1524975629;46.1437821;10.9667428;POINT (10.9667428 46.1437821);Paganella;hotel;Via Giuseppe Garibaldi;Molveno;38018;60;;;;http://www.paganellamolveno.it/;+39 0461 586925;info@paganellamolveno.it
1524975635;46.1428229;10.9637481;POINT (10.9637481 46.1428229);Stella Alpina;hotel;Via Cesare Battisti;Molveno;38018;6;;;;http://www.hotelstellaalpina.com/;+39 0461 586918;info@hotelstellaalpina.com
1525276870;46.1425781;10.9662974;POINT (10.9662974 46.1425781);Lasteri;hotel;;;;;;;;;;
1525370710;46.1425832;10.9679104;POINT (10.9679104 46.1425832);Nevada;hotel;Via Paganella;Molveno;38018;23;;;;http://www.hotelnevada.it/;+39 0461 586970;info@hotelnevada.it
1525370739;46.1416881;10.963581;POINT (10.963581 46.1416881);Residence San Carlo;hotel;Via Lungolago;Molveno;38018;2;;;;http://www.residencesancarlo.com/;+39 0461 586264;info@residencesancarlo.com
1525370743;46.141516;10.9630606;POINT (10.9630606 46.141516);Residence Stefanine;hotel;Via Lungolago;Molveno;38018;2;;;;http://www.residencestefenine.it/;+39 0461 586363;info@hoteldulac.it
1538545372;46.2618564;11.7988789;POINT (11.7988789 46.2618564);Miramonti;hotel;;;;2;;;;;+39 0439 68069;
1562367122;45.8307758;10.5396741;POINT (10.5396741 45.8307758);Unnamed;hotel;;;;;;;;;;
1563100687;46.178696;11.8327374;POINT (11.8327374 46.178696);Hotel Tressane;hotel;;;;;;;;https://www.hoteltressane.it/;+39 0439 762205;
1565064745;46.2591205;11.0839194;POINT (11.0839194 46.2591205);da Nonna Tullia;guest_house;Località Bastianelli;Ton;38010;11;;;;https://www.airbnb.it/rooms/43625954;;
1584063977;46.3952935;11.6676968;POINT (11.6676968 46.3952935);Avisio;hotel;Stradon de Fascia;Soraga di Fassa;38030;8;;;Hotel Avisio SRL;https://www.hotelavisio.it/;+39 462 768130;info@hotelavisio.it
1584063978;46.3945467;11.6669935;POINT (11.6669935 46.3945467);Garni Eden;hotel;;;;;;;;;;
1585221225;46.3957336;11.6659649;POINT (11.6659649 46.3957336);Hotel Heidi;hotel;;;;;;;;;;
1605643365;46.1303376;11.2038207;POINT (11.2038207 46.1303376);Mosegot;guest_house;;;;;;;;;;
1616820018;46.2489235;11.1754138;POINT (11.1754138 46.2489235);B&B alla Luna;guest_house;Via Quattro Novembre;Roveré della Luna;38030;27;;;;http://www.bb-allaluna.it/;;http://www.bb-allaluna.it/prezzi_10.html#
1618076271;46.0718552;11.124281;POINT (11.124281 46.0718552);Palazzo Lachman;hotel;Piazza Silvio Pellico;Trento;38122;12;;;;https://www.palazzolachman.it/;+39 3924814762;
1658067395;46.0939112;11.2923563;POINT (11.2923563 46.0939112);B&B La Marianna;guest_house;;;;;;;;;;
1659352330;45.9357825;11.0945675;POINT (11.0945675 45.9357825);Bed & Breakfast Salizzoni;guest_house;;;;;;;;https://www.salizzoni.info/it/l-agriturismo.html;;
1660548559;46.3913292;11.6644196;POINT (11.6644196 46.3913292);Val di Fassa;hotel;Strada de Palua;Soraga di Fassa;38030;6;;;;http://www.albergovaldifassa.com/;+39 0462 768111;info@albergovaldifassa.com
1660548582;46.3910011;11.6703351;POINT (11.6703351 46.3910011);Ombretta;hotel;;;;;;;;;;
1660548635;46.3991812;11.6668191;POINT (11.6668191 46.3991812);Hotel Arnica;hotel;Strada de Parlaut;Soraga di Fassa;38030;4;;;;https://www.hotelarnica.net/;+39 0462 768415;info@hotelarnica.net
1660548640;46.388444;11.664345;POINT (11.664345 46.388444);Hotel Latemar;hotel;Strada de Palua;Soraga di Fassa;38030;5;;;;https://www.latemarhotel.com/;+39 0462 768103;info@latemarhotel.com
1660548659;46.3878019;11.6631745;POINT (11.6631745 46.3878019);Garnì Aurora;hotel;;;;;;;;;;
1660548660;46.3973382;11.6675003;POINT (11.6675003 46.3973382);Hotel Malder;hotel;Strada Don Sepon;Soraga di Fassa;38030;28;;;;https://www.hotelmalder.com/;+39 0462 768121;info@hotelmalder.com
1697693183;46.1954282;11.1664322;POINT (11.1664322 46.1954282);Maso Nello;guest_house;Via Pineta Localita' Maso Nello;;;3;;;;;;
1727066061;45.8689232;10.8767851;POINT (10.8767851 45.8689232);Lago di Garda;hotel;Via Lungolago Conca d'Oro;;;11;;;;https://www.hotellagodigarda.it/;+39 0464 505111;info@hotellagodigarda.it
1756261212;46.2592917;11.0841495;POINT (11.0841495 46.2592917);Edera;guest_house;Località Bastianelli;Ton;38010;15;;;;http://www.edera-rita.it/;;edera.rita@gmail.com
1800668282;46.2172487;11.1183601;POINT (11.1183601 46.2172487);Pedelmont;guest_house;Via alla Grotta;Mezzocorona;38016;29;;;;http://www.pedelmont.it/;+39 0461 605352;cendou@tiscali.it
1801538113;46.2104526;11.0979168;POINT (11.0979168 46.2104526);Corte delle Rondini;guest_house;Via Carlo Devigili;Mezzolombardo;38017;29;;;Bebber Fabio;;+39 0461 604426;cortedellerondini@yahoo.it
1836979545;46.4245333;11.6366551;POINT (11.6366551 46.4245333);Malga Vael;alpine_hut;;;;;;;;;;
1839797802;46.1917371;11.9421737;POINT (11.9421737 46.1917371);Hotel Chalet Giasenei;hotel;;;;;;;;https://www.chaletgiasenei.com/;;
1843995236;46.0174524;10.8196861;POINT (10.8196861 46.0174524);"Albergo Bar ""La Rosa""";hotel;;;;;;;;;;
1857232883;46.2166169;11.093233;POINT (11.093233 46.2166169);Albergo AL SOle art&comfort;hotel;;;;;;;;;;
1864328365;45.9581958;11.3688467;POINT (11.3688467 45.9581958);Malga Costa di sotto;chalet;;;;;;;;;;
1884458666;46.3769535;11.6595125;POINT (11.6595125 46.3769535);Hotel Garnì Aurora;hotel;;;;;;;;;+39 0462 573116;
1890687017;46.1786202;11.8215984;POINT (11.8215984 46.1786202);Unnamed;chalet;;;;;;;;;;
1904668695;45.8859638;10.8401286;POINT (10.8401286 45.8859638);Antico Borgo;hotel;;;;;;;;;;
1904668700;45.8860274;10.8412657;POINT (10.8412657 45.8860274);Alle Porte;hotel;;;;;;;;;;
1952320234;46.1932879;11.9050989;POINT (11.9050989 46.1932879);Rifugio Cereda;hotel;;;;;;;;;;
2063469836;46.1693017;10.7635334;POINT (10.7635334 46.1693017);Hotel Denny e Residence;hotel;;;;;;;;;;
2078208282;45.8236297;10.9606639;POINT (10.9606639 45.8236297);B&B Pizzeria La Pineta;guest_house;;Brentonico;38060;;italian;;;https://www.pizzeriapineta.it/index.html;+39 0464 395296;info@pizzeriapineta.it
2079120735;46.1721967;11.1286295;POINT (11.1286295 46.1721967);La Lanterna;guest_house;Località Masi di Sorni;Lavis;38015;13;;;Giovannini Alberto;;+39 0461 870003;
2096838559;46.2131685;11.1213804;POINT (11.1213804 46.2131685);Agritur Sole Blu;guest_house;Corso Quattro Novembre;Mezzocorona;38016;32;;;Dalpiaz Enrico;http://www.agritursoleblu.com/;+39 0461 605242;dalen60@gmail.com
2109823205;46.3697118;11.7301697;POINT (11.7301697 46.3697118);Bucaneve;hotel;;;;;;;;;;
2112487056;45.8785458;10.8611984;POINT (10.8611984 45.8785458);Hotel Benacus;hotel;Via Monte Brione;;38066;19;;;;;+39 464 552737;
2119128369;46.004392;11.1322403;POINT (11.1322403 46.004392);La decima;guest_house;Via della Decima;Mattarello;38123;26;;;;;;
2121025294;46.0074483;11.3072089;POINT (11.3072089 46.0074483);B&B Il glicine;guest_house;Via Tonelli;Levico Terme;38056;21;;;;;;
2188712129;46.1506474;11.7946648;POINT (11.7946648 46.1506474);Albergo Al Bivio;hotel;Via Nazionale;;;167;;;;https://www.albiviohotel.it;+39 439 67080;info@albiviohotel.it
2195327578;46.0727602;11.1227782;POINT (11.1227782 46.0727602);Bed & Breakfast Nettuno;guest_house;Via Gian Domenico Romagnosi;Trento;38122;26;;;;http://www.bbnettuno.it;+39 345 8267294;info@bbnettuno.it
2195683493;46.0695848;11.1194205;POINT (11.1194205 46.0695848);B&B Eden;guest_house;;;;;;;;http://www.bbeden.it/;+39 339 3650981;info@bbeden.it
2204578472;46.4048235;11.6081506;POINT (11.6081506 46.4048235);Pensione Rosengarten;hotel;;;;;;;;;;
2246967674;46.3614692;10.9446892;POINT (10.9446892 46.3614692);Trentino wild;caravan_site;;;;;;;;https://trentinowild.it/it/dove-dormire/area-camper-val-di-sole;;
2285642984;46.0779797;10.7454967;POINT (10.7454967 46.0779797);Unnamed;hotel;;;;;;;;;;
2365638497;46.0757682;11.1250433;POINT (11.1250433 46.0757682);B&B La Malvasia;guest_house;Via della Malvasia;Trento;38122;77;;;;https://www.bblamalvasia.it/;+393311173197;
2372485547;46.0586625;11.2374876;POINT (11.2374876 46.0586625);La Rotonda;hotel;;;;;;;;;;
2376831962;45.865657;10.5764794;POINT (10.5764794 45.865657);Casa Essenia;guest_house;;;;;;Agriturismo;;;;
2394661702;46.175468;11.831303;POINT (11.831303 46.175468);Hotel al ponte;hotel;;;;;;;;;;
2394661703;46.1752411;11.8313171;POINT (11.8313171 46.1752411);Hotel Isola Bella;hotel;;;;;;;;;;
2394661712;46.1742834;11.8276453;POINT (11.8276453 46.1742834);Albergo Dolomiti;hotel;;;;;;;;;;
2394661713;46.1740436;11.8270977;POINT (11.8270977 46.1740436);Hotel Luis;hotel;;;;;;;;;;
2394661714;46.173414;11.8272242;POINT (11.8272242 46.173414);A soleder;hotel;;;;;;;;;;
2394661718;46.1749276;11.8308213;POINT (11.8308213 46.1749276);Hotel Conca Verde;hotel;;;;;;;;;;
2394661719;46.1752914;11.8300584;POINT (11.8300584 46.1752914);Hotel Astoria;hotel;;;;;;;;;;
2394792820;46.1753705;11.8292957;POINT (11.8292957 46.1753705);Hotel Relais Orsingher;hotel;Via Angelo Guadagnini;Fiera di Primiero;;14;;;;http://www.hotelrelaisorsingher.it/;+39 0439 62816;info@hotelrelaisorsingher.it
2400147476;45.8848465;10.8561794;POINT (10.8561794 45.8848465);Residence Desiree;guest_house;;;;;;;;;;
2410787364;46.2322546;10.8253305;POINT (10.8253305 46.2322546);Hotel Miramonti;hotel;;;;;;;;;;
2412851336;46.3170602;10.798257;POINT (10.798257 46.3170602);Hotel Eccher;hotel;Via Quattro Novembre;Mezzana;;84;;;;https://www.hoteleccher.com/;+39 0463 757146;info@hoteleccher.com
2430536739;46.0135665;10.8212288;POINT (10.8212288 46.0135665);Agritur Maso alle Rose;guest_house;;;38071;;;;;https://www.masoallerose.com/;+39 0465 779780;
2443359624;45.7768117;11.1233211;POINT (11.1233211 45.7768117);Albergo Ristorante Aurora;hotel;;;;;regional;;;www.albergoaurora.tn.it;;
2450523527;45.9107545;10.840399;POINT (10.840399 45.9107545);Residence Cascata Varone Appartements;hotel;;;;;;;;;;
2458634960;45.8064296;10.5506755;POINT (10.5506755 45.8064296);Albergo Alpina;hotel;;;;;;;;;;
2482401350;45.8898901;11.0421989;POINT (11.0421989 45.8898901);Ostello di Rovereto;hostel;Via delle Scuole;Rovereto;38068;18;;;;;+39 0464 486757;
2487115292;45.9307381;10.822937;POINT (10.822937 45.9307381);Cristina;hotel;;;;;;;;;;
2604526360;46.3785003;11.7903839;POINT (11.7903839 46.3785003);Hotel Arnika;hotel;Sen Pelegrin;Moena;38035;43;;;;https://www.arnika.it/;;
2604526361;46.3783974;11.7892807;POINT (11.7892807 46.3783974);Hotel Monzoni;hotel;;;;;;;;;;
2613796297;46.4167262;11.1905107;POINT (11.1905107 46.4167262);Hotel Roen;hotel;Via Villini dell'Alpe;Ruffré-Mendola;38010;16;;;;http://www.hotel-roen.it/;+39 0463 090077;
2714052614;46.3423343;11.046879;POINT (11.046879 46.3423343);Agritur Odorizzi;hotel;Via Fratelli Carlo-Gioseffo Pinamonti;Rallo;38010;52;;;;;;
2761608247;46.1528284;11.8119715;POINT (11.8119715 46.1528284);Araea Attrezzata Camper a pagamento;caravan_site;;;;;;;;;;
2835699022;45.7902661;11.1120106;POINT (11.1120106 45.7902661);"Albergo ""Alla Lanterna""";hotel;;;;;;;;;;
2841347980;45.9040517;11.0370081;POINT (11.0370081 45.9040517);Area sosta camper Holiday Camper Club;caravan_site;;;;;;;;;;
2863110499;46.140023;10.9592798;POINT (10.9592798 46.140023);Hotel Garni Arnica;hotel;Via Lungolago;Molveno;38018;30;;;Famiglia Franchi;https://www.arnicamolveno.it/;+39 0461 587090;
2868363423;45.8912215;10.9520082;POINT (10.9520082 45.8912215);Hotel Martinelli;hotel;Via del Car - Strada Provinciale Bordala;Ronzo-Chienis;38060;4;;;;https://hotelmartinelli.it/;+39 0464 802908;mirko@hotelmartinelli.it
2874104626;45.8861323;10.8415038;POINT (10.8415038 45.8861323);Vittoria;hotel;;;;;;;;;;
2886648065;45.8759904;10.8945678;POINT (10.8945678 45.8759904);Agritur Stefenelli;chalet;;;;;;;;;;
2927453201;45.9241214;10.8901913;POINT (10.8901913 45.9241214);Hotel Garden;hotel;Via Paolina Caproni Maini;Arco;38062;40;;;;;;
2932894308;45.8540687;10.9680409;POINT (10.9680409 45.8540687);Da Neni;hotel;Via F. Filzi;Mori;38065;46;;;;https://www.daneni.it/;+39 0464 918360;albergo@daneni.it
2940145322;46.1925318;11.9407338;POINT (11.9407338 46.1925318);Campeggio Parrocchia Altavilla;camp_site;;;;;;;;;;
3002405374;45.817303;10.9559839;POINT (10.9559839 45.817303);Neni;hotel;;;;;;;;;;
3075526096;46.1953127;11.6788605;POINT (11.6788605 46.1953127);Unnamed;caravan_site;;;;;;;;;;
3079095545;46.1898366;10.78737;POINT (10.78737 46.1898366);Albergo Garni La Soldanella;;Via Vedretta di Lares;Sant'Antonio di Mavignola;38086;8;;;;;;
3082747010;46.3156299;10.7735922;POINT (10.7735922 46.3156299);Agricampeggio Ai Gaggi;camp_site;;Claiano di Pellizzano;38020;3;;;;https://www.aigaggi.com/;+39 0463 89 00 62;info@aigaggi.com
3096744951;46.3149489;11.1523097;POINT (11.1523097 46.3149489);Rifugio Predaia «ai Todes ci»;alpine_hut;Località Predaia;Tres;38010;;;;Todeschi S.r.l.;http://www.rifugiopredaia.com;+39 0463 463138;rifugiopredaia@tiscali.it
3101758143;46.0353564;11.1264783;POINT (11.1264783 46.0353564);Al Marinaio;hotel;Via dei Marinai d'Italia;Trento;38123;28;;;Groff Giovanni S.R.L.;http://www.almarinaio.eu/;+39 0461 933053;info@almarinaio.eu
3110555132;46.0511303;11.1123839;POINT (11.1123839 46.0511303);Sporting Trento;hotel;Via Roberto da Sanseverino;Trento;38123;125;;;;https://hotelsportingtrento.it/;+39 0461 391215;info@sportingtrento.it
3125773784;46.3317382;10.878995;POINT (10.878995 46.3317382);Belfiore;hotel;;;;;;;;;;
3125922218;46.3329579;10.8798755;POINT (10.8798755 46.3329579);B&B Alle Meridiane;guest_house;;;;;;;;;;
3126430606;46.3090347;10.7572915;POINT (10.7572915 46.3090347);Bontempelli;guest_house;Via Simone Lenner;Pellizzano;38020;20;;;;https://www.jagerhaus.it/;;
3127246069;46.3337319;10.8805677;POINT (10.8805677 46.3337319);Casa Gregori;guest_house;Via Borgo;Monclassico;38020;50;;;;;;
3127439548;46.3332929;10.8877543;POINT (10.8877543 46.3332929);B&B Nido delle Aquile;guest_house;;;;;;;;;;
3138146062;46.2854337;10.8678652;POINT (10.8678652 46.2854337);Malga Bassa di Presson;alpine_hut;;;;;;;ASUC di Presson;http://www.comune.monclassico.tn.it/page.php?c=24;+39 0463 974183;asuc@comune.monclassico.tn.it
3138470379;46.2810552;10.8571771;POINT (10.8571771 46.2810552);Malga Alta di Presson;alpine_hut;;;;;;;ASUC di Presson;http://www.comune.monclassico.tn.it/page.php?c=24;+39 0463 974183;asuc@comune.monclassico.tn.it
3144060413;46.0150398;11.2957681;POINT (11.2957681 46.0150398);Bellavista Relax Hotel;hotel;Viale Vittorio Emanuele;Levico Terme;38056;7;;;;https://www.bellavistarelax.it;;
3162899566;46.4139504;11.1724317;POINT (11.1724317 46.4139504);Mas Da La Val;guest_house;;;;;regional;;;;;
3179583778;46.0346111;11.1453149;POINT (11.1453149 46.0346111);Agritur Maso San Rocco;guest_house;Via Galassa;Trento;38123;86;regional;;;;+39 0461 922785;
3283826287;46.2639922;11.8021282;POINT (11.8021282 46.2639922);Hotel Regina;hotel;;;;;;;;;;
3283832445;46.2624586;11.8030448;POINT (11.8030448 46.2624586);Excelsior Hotel Cimone;hotel;;;;;;;;;;
3283832446;46.2625221;11.8026057;POINT (11.8026057 46.2625221);Hotel Margherita;hotel;;;;;;;;;;
3317504695;45.8839736;10.9698623;POINT (10.9698623 45.8839736);Capanna Biaena;alpine_hut;;;;;;;SAT Val di Gresta;;;
3326954521;45.7591908;11.0020116;POINT (11.0020116 45.7591908);Shangri-La;hotel;;;;;;;;;;
3348535604;46.355348;10.6927804;POINT (10.6927804 46.355348);BaitaScaia;guest_house;;;;;;;;;;
3382973251;46.0685549;11.2401625;POINT (11.2401625 46.0685549);Agritur Bortolotti;hotel;Via Montesei;Pergine Valsugana;38057;2-4;;;famiglia Bortolotti;http://www.agriturbortolotti.it;+39 0461 530125;
3390668787;45.882057;11.1986209;POINT (11.1986209 45.882057);Hotel Grizzly;hotel;;;;;;;;;+39 0464 721517;vacanze@hotelgrizzly.it
3390922220;46.3031648;10.8585111;POINT (10.8585111 46.3031648);Hotel Selva;hotel;;;;;;;;;;
3390945330;46.305149;10.8630847;POINT (10.8630847 46.305149);Hotel Folgarida;hotel;Strada dei Brenzi;;;42;;;;;;
3390946629;46.304708;10.861301;POINT (10.861301 46.304708);Hotel Renzi;hotel;;;;;;;;;;
3434318063;46.3483926;11.0891645;POINT (11.0891645 46.3483926);Hotel Sport;hotel;Via delle Antiche Fontane;Coredo;38012;6;;;;https://hotelsportcoredo.com/;+39 0463536108;info@hotelsportcoredo.com
3439623930;46.4276951;11.158111;POINT (11.158111 46.4276951);Villa Orso Grigio;hotel;Via Regole;Ronzone;38010;12;;;;https://www.orsogrigio.it/;+39 0463 880559;
3521657787;46.0270918;11.2295212;POINT (11.2295212 46.0270918);Albergo Valcanover;hotel;Via di Mezzo Lago;Pergine Valsugana;38057;3;;;;http://www.albergovalcanover.it;+39 0461 548 037;albergo.valcanover@virgilio.it
3623163147;46.2641045;11.8012675;POINT (11.8012675 46.2641045);Hotel Alpino;hotel;Via Passo Rolle;San Martino di Castrozza;38054;239;;;;;+39 0439 768881;
3635266770;45.9099759;10.8137468;POINT (10.8137468 45.9099759);Casa delle Tre Fonti;chalet;;;;;;;Agnes & Harald Wolter;https://www.ferienwohnungen.de/cgi-bin/eigene-homepage.cgi?LinkID=12965;+49 2485 911085;
3658626297;45.9348481;11.2530494;POINT (11.2530494 45.9348481);Hotel al Lago;hotel;;;;;;;;;;
3683404313;46.2901586;10.813209;POINT (10.813209 46.2901586);Rifugio Orti;alpine_hut;;;;;;;;;;
3689782050;45.9381091;11.2591108;POINT (11.2591108 45.9381091);Nido Verde;hotel;;;;;;;;https://nidoverde.it/;;
3689784981;45.9405937;11.2681873;POINT (11.2681873 45.9405937);Monteverde;hotel;;;;;;;;;;
3710687730;46.1417925;11.0991668;POINT (11.0991668 46.1417925);Agritur Piffer B&B;guest_house;Località Torbisi;Lavis;38015;3/1;;;Famiglia Piffer;https://www.agriturpiffer.com/;+39 335 5725649;info@agriturpiffer.com
3718861628;46.071251;11.4921408;POINT (11.4921408 46.071251);Le Rose - Ristorante Bed & Breakfast;guest_house;Via Diciotto Settembre;Carzano;38050;35;italian;;Capra Giovanni;http://le-rose.it/;+39 347 829 4212;
3718988002;46.3406951;11.5374115;POINT (11.5374115 46.3406951);Hotel Lo Scoiattolo;hotel;;;;;;;;;;
3727868209;46.28848;11.539339;POINT (11.539339 46.28848);Casa Fipinger;guest_house;Via Costa;Panchià;38030;30;;;;http://www.bbcasafipinger.it/;+39 348 7462414;info@bbcasafipinger.it
3740021763;46.4093619;11.0105414;POINT (11.0105414 46.4093619);Agritur Monte Pin;chalet;Frazione Preghena;Livo;38020;49;;;;https://www.agriturmontepin.it/;+39 0463 535033;
3785837254;46.3765141;11.6591733;POINT (11.6591733 46.3765141);Central Hotel;hotel;Strada Luigi Heilmann;Moena;38035;4;;;;https://www.centralhotel.it/;+39 0462 573228;INFO@CENTRALHOTEL.IT
3785837255;46.3763308;11.6589552;POINT (11.6589552 46.3763308);Hotel de Ville;hotel;;;;;;;;http://www.hotel-deville.it/;+39 0462 573338;prenotazioni@hotel-deville.it
3785865216;46.3762722;11.6585455;POINT (11.6585455 46.3762722);Hotel Cavalletto;hotel;Strada De Fachin;Moena;38035;1;;;;https://www.hotelcavalletto.it/;+39 335 250766;info@hotelcavalletto.it
3803736242;46.0115326;11.1395582;POINT (11.1395582 46.0115326);Villa Bertagnolli;hotel;;;;;italian;;;;;
3805887814;46.0717727;11.4929438;POINT (11.4929438 46.0717727);Agritur Capra Mauro;guest_house;;;;;;;;http://www.agriturvalsugana.it/;;
3817179746;46.0797876;11.125318;POINT (11.125318 46.0797876);B&B Il Giardino;guest_house;Via della Spalliera;Trento;38121;1;;;;http://www.bbgiardino.it;+39 0461 1865105;info@bbgiardino.it
3884400213;46.2904824;11.4341186;POINT (11.4341186 46.2904824);Centro Vacanze Veronza;hotel;Piazza Dolomiti;Carano;38033;;;;Veronza Clubres;;;
3887283108;46.3246182;10.8753971;POINT (10.8753971 46.3246182);Hotel Dolomiti;hotel;;;;;;;;http://www.alphoteldolomiti.com/;;
3887703011;46.2558677;11.0818381;POINT (11.0818381 46.2558677);Abete Rosso;guest_house;;;;;;;;http://www.abete-rosso.it/;;info@abete-rosso.it
3917212935;46.0544739;11.4593878;POINT (11.4593878 46.0544739);1775 Locanda in Borgo;guest_house;Corso Ausugum;Borgo Valsugana;38051;90;;;Strutture immobiliari S.R.L.;https://locandainborgo.it/;+39 0461 757103;info@locandainborgo.it
3932008633;46.4198078;11.6702191;POINT (11.6702191 46.4198078);Hotel Catinaccio;hotel;Piaz Massar;Vigo di Fassa;38039;12;;;;https://www.hotelcatinaccio.com/;;info@hotelcatinaccio.com
3981788253;46.0932749;11.5366372;POINT (11.5366372 46.0932749);Malga Tizzon;chalet;;;;;;;;;;
3997617088;46.3561499;10.6666009;POINT (10.6666009 46.3561499);Hotel Santa Maria;hotel;;;;;;;;https://www.hotelsantamaria.it/;;
3997900667;46.3547094;10.6644447;POINT (10.6644447 46.3547094);Hotel Albergo Milano;hotel;;;;;;;;http://www.hotelmilano.to;;
3997900668;46.3560741;10.6636212;POINT (10.6636212 46.3560741);Hotel Albergo Sporting;hotel;;;;;;;;https://www.albergosporting.it/;;
3997900669;46.3542979;10.6620241;POINT (10.6620241 46.3542979);Hotel Alpino;hotel;;;;;;;;https://www.hotelalpino.com/;;
3997900670;46.3540108;10.6682878;POINT (10.6682878 46.3540108);Hotel Aurora;hotel;;;;;;;;https://www.aurorahotel.info/;;
3997900671;46.3534571;10.663521;POINT (10.663521 46.3534571);Hotel Europa;hotel;;;;;;;;https://www.hoteleuropa.tn.it/;;
3997900672;46.3539845;10.6646701;POINT (10.6646701 46.3539845);Hotel Pejo;hotel;;;;;;;;https://www.hotelpejo.it/;;
3997900673;46.3541872;10.665188;POINT (10.665188 46.3541872);Hotel Rosa degli Angeli;hotel;;;;;;;;https://www.hotelrosadegliangeli.it/;;
3997900674;46.3560847;10.667221;POINT (10.667221 46.3560847);Hotel Vioz;hotel;;;;;;;;https://www.hotelvioz.it/;;
3997900675;46.3530753;10.665933;POINT (10.665933 46.3530753);Hotel Zanella;hotel;;;;;;;;http://www.hotelzanella.it;;
4013904556;46.3532515;10.6679391;POINT (10.6679391 46.3532515);Hotel Alpen;hotel;;;;;;;;https://www.hotelalpen.com/;;
4020650513;45.8964458;10.7165007;POINT (10.7165007 45.8964458);Albergo alla Costa;hotel;;Bezzecca;;3;;;;;;
4055909689;46.3130577;11.662717;POINT (11.662717 46.3130577);Albergo Antico;hotel;;;;;;;;;;
4072435028;45.8820174;11.1990523;POINT (11.1990523 45.8820174);La baita;hotel;Località Fondo Piccolo;Folgaria;38064;20;;;;https://www.hotellabaita.it/;+39 0464 721566;
4107859797;45.7581292;11.0056301;POINT (11.0056301 45.7581292);ai Vellutai;guest_house;;;;;;;;;;
4112385579;46.0720211;11.493583;POINT (11.493583 46.0720211);B&B Le Fontane;guest_house;Via Villa;Carzano;38050;20;;;;;+39 0461 766590;
4123989565;46.3163314;10.798213;POINT (10.798213 46.3163314);Hotel Val di Sole;hotel;Via Quattro Novembre;Mezzana;38020;135;;;;https://www.hotelvaldisole.it/;+39 0463 757240;
4123992289;46.3166612;10.7979797;POINT (10.7979797 46.3166612);Centro Appartamenti Vacanze;hotel;Via Quattro Novembre;Mezzana;38020;135;;;;;;
4165165190;45.8855715;10.8390283;POINT (10.8390283 45.8855715);Residence Trieste;guest_house;Via Fiume;Riva del Garda;38066;17;;;Massimo;;;
4209374430;45.895622;10.716116;POINT (10.716116 45.895622);Hotel Maggiorina;hotel;Via XXIV Ottobre;Ledro;38067;9;;;;https://www.albergomaggiorina.it;+39 0464 591029;info@albergomaggiorina.it
4215472115;46.0664678;11.1533567;POINT (11.1533567 46.0664678);B&B Le Ziette;guest_house;Via alla Cascata;Povo;38123;4/1;;;;http://www.leziette.altervista.org/;;le.ziette@virgilio.it
4218217238;46.374717;11.0766747;POINT (11.0766747 46.374717);Hotel Casez;hotel;Strada di Dambel;Sanzeno;;;;;;;;
4219932700;46.2619625;11.8036409;POINT (11.8036409 46.2619625);Hotel la montanara;hotel;;;;;;;;;;
4222161190;45.9406708;11.2516487;POINT (11.2516487 45.9406708);Hotel Astoria;hotel;;;;;;;;;;
4246041117;45.8519281;10.824317;POINT (10.824317 45.8519281);B&B Posta Pregasina;guest_house;Località Pregasina;Riva del Garda;38066;20;;;;https://www.postapregasina.it/;+39 3381836863;
4270450024;46.3994737;11.6681699;POINT (11.6681699 46.3994737);Ciasa dò Parè;guest_house;;;;;;;;;;
4290804581;46.4203095;11.1466242;POINT (11.1466242 46.4203095);Al Larice;hotel;Via Italia;Ronzone;38010;9;;;;http://www.hotelallarice.it/;+39 0463 831710;info@hotelallarice.it
4294950101;46.0804282;11.5543341;POINT (11.5543341 46.0804282);Albergo Carraro;hotel;Via Ammiraglio Giovanni Bettolo;Bieno;38050;8;;;;;;
4309629821;46.4816579;11.78774;POINT (11.78774 46.4816579);Hotel Bellavista;hotel;Strèda de Pordoi;Canazei;38032;12;;;;https://www.bellavistahotel.it/;+39 0462 601165;booking@bellavistahotel.it
4313423618;45.8833194;10.8636133;POINT (10.8636133 45.8833194);Garni Beniamino;hotel;Via Brione;Riva del Garda;38066;54;;;;;;
4316269009;45.9296637;10.8262447;POINT (10.8262447 45.9296637);B&B;guest_house;;;;;;;;;;
4325332487;46.2993166;11.0305839;POINT (11.0305839 46.2993166);Garnì Vecchio Comune;hotel;Via Campo Sportivo;Flavon;38093;1;;;;https://www.garnivecchiocomune.com/;+390461652070;info@garnivecchiocomune.com
4327870393;45.8815054;10.8575188;POINT (10.8575188 45.8815054);B&B Villa Elvi;guest_house;Via Vicenza;;38066;3;;;Tedeschi elvira;;+39 0464 553070;info@villaelvi.it
4331363662;46.0171931;11.63573;POINT (11.63573 46.0171931);Albergo Ristorante Conca d'Oro;hotel;Piazza Dante Alighieri;Grigno;38055;1;regional;;;;+39 0461 765126;albergo.concadoro@alice.it
4342559631;46.0733702;11.1067195;POINT (11.1067195 46.0733702);Doss Trento B&B;guest_house;Via Santi Cosma e Damiano;Trento;38121;94;;;Luisella Turri;http://www.dosstrento.it/;+39 339 2039750;info@dosstrento.it
4347884889;46.2431886;10.83977;POINT (10.83977 46.2431886);Hotel Catturani;hotel;Via Pian dei Frari;Madonna di Campiglio;38086;1;;;;http://catturanimadonnadicampiglio.it;+390465442731;
4361892428;46.3000028;10.8636816;POINT (10.8636816 46.3000028);Nevesole Folgarida Resort Aparthotel;hotel;Via dei Monti Alti;;38025;60/62;;;;https://www.nevesolefolgaridaresort.com/;+39 0463 988111;info@nevesolefolgaridaresort.com
4370715433;46.3526249;10.9138828;POINT (10.9138828 46.3526249);Liberty Hotel Malé;hotel;Piazza Garibaldi;Malé;38027;33;;;;http://www.libertyhotelmale.it;+39 463 90 11 05;info@libertyhotelmale.it
4371620904;45.9194038;10.8920636;POINT (10.8920636 45.9194038);Casa Donegani;guest_house;Via della Provvidenza;Arco;38062;13;;;;https://www.casa-donegani-arco.com/;+39 346 3668242;doneganimariaa@gmail.com
4380810259;46.3098516;10.746687;POINT (10.746687 46.3098516);Hotel Niagara;hotel;Via Santa Maria Maddalena;Ossana;38026;16;"regional;pizza";;La canadese s.r.l.;http://www.hotelniagara.com/;+39 0463 751626;info@hotelniagara.com
4390451735;46.3131199;10.7846341;POINT (10.7846341 46.3131199);Agriturismo Bontempelli;guest_house;;;;;;;;;;
4393058908;46.3806888;10.6596574;POINT (10.6596574 46.3806888);Rifugio Doss dei Cembri / Doss dei Gembri;alpine_hut;Piani del Vioz;;;;;;;;+39 0463 753227;info@dossdeigembri.it
4393789389;46.4761424;11.7727563;POINT (11.7727563 46.4761424);Garni Serena;guest_house;;;;;;;;;;
4402765085;46.4205149;11.0895215;POINT (11.0895215 46.4205149);Agritur Al Canyon;guest_house;Via G.de Martini;Cloz;38020;42;;;;http://www.agrituralcanyon.it;"+39 0463 874625;+39 349 2848387;+39 334 8588451";info@agrituralcanyon.it
4427724343;46.0689482;11.6091312;POINT (11.6091312 46.0689482);Taxus Hostel;hostel;;;;;;;;http://www.taxushostel.it;;
4429062561;46.04811;11.3921233;POINT (11.3921233 46.04811);B&B Monte Tesobo;guest_house;Monte di Mezzo;Roncegno Terme;38050;11;;;;http://www.montetesobo.it;+39 0461 773185;
4476730925;46.2896959;11.5098456;POINT (11.5098456 46.2896959);Hotel La Sorgente;guest_house;Via Benesin;;;8;;;;https://www.hotellasorgente.info/;;
4548249944;46.1978734;11.6757024;POINT (11.6757024 46.1978734);albergo Al Pin;hotel;;;;;;;;;;
4552344893;46.3165356;10.7990059;POINT (10.7990059 46.3165356);Hotel Monte Giner;hotel;Via Quattro Novembre;Mezzana;38020;72;;;;https://www.hotelmonteginer.com/;+39 0463 757105;
4570658882;46.2881983;11.46003;POINT (11.46003 46.2881983);Grunwald;hotel;;;;;;;;;;
4570658883;46.288598;11.4599472;POINT (11.4599472 46.288598);Garnì Stellune;hotel;;;;;;;;;;
4574006990;46.3006775;10.701826;POINT (10.701826 46.3006775);B&B Magnini;guest_house;Di Cortina;;38029;49;;;Walter e Silvana;https://www.bnbmagnini.net/;+39 347 4421340;bnbmagnini@gmail.com
4579659993;45.8920991;10.8424663;POINT (10.8424663 45.8920991);Garnì Villa Maria;hotel;Viale dei Tigli;;;19;;;;;+39 0464 552288;
4582441586;46.2917544;11.4594894;POINT (11.4594894 46.2917544);Hotel Excelsior;hotel;;;;;;;;www.excelsiorcavalese.com;;
4594549027;46.2918846;11.4624782;POINT (11.4624782 46.2918846);Garnì Manuela;hotel;Via Pizzegoda;Cavalese;38033;3a;;;;;;
4614430471;46.0716333;11.5113729;POINT (11.5113729 46.0716333);B&B Al Larice;guest_house;Via Santa Apollonia;Castel Ivano;38059;13;;;;;+39 339 794 5539;apollonia31@alice.it
4706605889;45.7815619;10.9137786;POINT (10.9137786 45.7815619);Hotel Sole Del Baldo;hotel;;;;;;;;;;
4715776391;45.9994772;10.6754977;POINT (10.6754977 45.9994772);Ludino;chalet;Località Ludino;;38087;;;;;http://fb.com/ludino;;
4742162959;46.4712395;11.7338882;POINT (11.7338882 46.4712395);Golden Park Resort;hotel;;;;;;;;;;
4751825003;46.2604997;10.5877895;POINT (10.5877895 46.2604997);Sole;hotel;Via S. Bartolomeo;Passo del Tonale;38029;27;;;;;;
4751825015;46.2590403;10.5843818;POINT (10.5843818 46.2590403);Vittoria;hotel;;;;;;;;;;
4751825021;46.2606901;10.5883314;POINT (10.5883314 46.2606901);Sciatori;hotel;;;;;;;;;;
4751825040;46.2603071;10.5869679;POINT (10.5869679 46.2603071);Eden;hotel;Via S. Bartolomeo;Passo del Tonale;38029;23a;;;;;;
4751825049;46.2601663;10.5865754;POINT (10.5865754 46.2601663);Negritella;hotel;;;;;;;;;;
4751825052;46.2599772;10.5857469;POINT (10.5857469 46.2599772);Stella;hotel;Via San Bartolomeo;Passo del Tonale;38029;15;;;;;;
4751825063;46.2596997;10.5851429;POINT (10.5851429 46.2596997);Edelweiss;hotel;;;;;;;;;;
4764462415;45.938754;11.1109103;POINT (11.1109103 45.938754);B&B Blue Mind;guest_house;Via Roma;Besenello;38060;45;;;;https://www.bed-and-breakfast.it/it/trentino-alto-adige/bb-bluemind-besenello/10710;+39 338 5908228;
4806172407;46.4343755;11.1021845;POINT (11.1021845 46.4343755);Unnamed;guest_house;;;;;;;;;;
4851051372;46.1781478;11.0730895;POINT (11.0730895 46.1781478);Agriturismo Florandonole;guest_house;;;;;;;;https://www.florandonole.it/;+39 0461 581039;info@florandonole.it
4880761138;46.4069999;11.1334445;POINT (11.1334445 46.4069999);Hotel Rosa;hotel;;;;;;;;;;
4883919629;46.311584;10.7591799;POINT (10.7591799 46.311584);Hotel Arcangelo;hotel;Via Nazionale;Pellizzano;38020;18;;;;https://www.hotelarcangelo.it/;+39 0463751650;info@hotelarcangelo.it
4883919630;46.3110458;10.7569604;POINT (10.7569604 46.3110458);Hotel Cova;hotel;via Nazionale;Pellizzano;38020;33;;;;;;
4899366163;46.3092259;10.7600308;POINT (10.7600308 46.3092259);Ca’ dei Baroni;guest_house;Via Cipriano Vallorsa;Pellizzano;38020;4;;;;https://www.cadeibaroni.com/;;
4926845523;46.0545425;11.4638382;POINT (11.4638382 46.0545425);P3 Area sosta camper;caravan_site;Via Temanza;Borgo Valsugana;38051;;;;;;;
4937229620;46.2546543;11.0694069;POINT (11.0694069 46.2546543);Al Mas;guest_house;Località Raut;Ton;38010;6;;;Maurizio Paternoster;;;maurizio.pat@email.it
4939850862;45.8903859;11.1516511;POINT (11.1516511 45.8903859);Maso Michael;guest_house;Via Schlosseri;;;98;;;;https://www.masomichael.it/;+39 324 7958911;comunicazione@masomichael.it
5015871209;45.9955259;11.1263649;POINT (11.1263649 45.9955259);Hotel Karinhall;hotel;;;;;;;;;+39 0461 945339;
5039356822;45.9051755;10.8576467;POINT (10.8576467 45.9051755);Verdepiano Bed & Camping;caravan_site;;;;;;;;;;
5048416712;45.9466796;10.6645129;POINT (10.6645129 45.9466796);ex Locanda Monte Cadria;hotel;;;;;;;;;;
5058357524;46.4736503;11.735674;POINT (11.735674 46.4736503);Hotel Christine;hotel;;;;;;;;;;
5058357673;46.4762719;11.7705123;POINT (11.7705123 46.4762719);Hotel Croce Bianca;hotel;;;;;;;;;;
5068589687;46.004789;11.3350693;POINT (11.3350693 46.004789);B&B Renè;guest_house;Via Orazio Gaigher;Levico Terme;38056;4;;;;https://www.bebrenata.it/web/;+39 340 2212880;info@bebrenata.it
5075288634;46.301973;11.0798755;POINT (11.0798755 46.301973);Agriturismo La Pieve;hotel;Via di Sant'Eusebio;Torra;38012;4;;;;;;
5092397523;45.8949342;10.7190425;POINT (10.7190425 45.8949342);Casa Catullo;guest_house;Via Giacomo Cis;;;20;;;;;+39 3498516006;
5092420023;45.8999741;10.725497;POINT (10.725497 45.8999741);Albergo Ristorante Alba;guest_house;Via San Marco;Ledro;38067;1;;;;http://www.albergoalba.com/;+39 0464 591056;
5331063721;46.2472896;10.8130599;POINT (10.8130599 46.2472896);Rifugio Pradalago 2100;alpine_hut;;;;;;;;;;
5352766114;46.3037041;11.4560654;POINT (11.4560654 46.3037041);Hotel Ristorante Alpino;hotel;;;;;;;;;;
5358965821;46.378529;11.6545517;POINT (11.6545517 46.378529);Hotel La Romantica;hotel;;;;;;;;;;
5382934239;46.1643451;11.2096676;POINT (11.2096676 46.1643451);Agritur Pojer e Sandri;guest_house;;;;;;;;http://www.pojeresandri.it/;;
5406973438;46.0479003;10.8732422;POINT (10.8732422 46.0479003);B&B Maso Azzurro;guest_house;;;;;;;;;;
5420501693;46.2141246;11.0946286;POINT (11.0946286 46.2141246);Casa da Carmen;hotel;Via Damiano Chiesa - dal civico 2/1 al civico 2/13;Mezzolombardo;38017;2/6;;;;;;
5495943394;46.1112887;11.0919622;POINT (11.0919622 46.1112887);B&B Hotel Trento;hotel;Via Innsbruck;Trento;38121;11;;;B&B Hotels;https://www.hotel-bb.com/it/hotel/trento.htm;+39 0461 961500;trento@hotelbb.com
5599675323;45.9001229;10.8556994;POINT (10.8556994 45.9001229);Appartamenti la Cascina;guest_house;;;;;;;;;;
5615097525;46.4174835;11.6772759;POINT (11.6772759 46.4174835);Ciasa Teresa;chalet;;;;;;;;;;
5642580652;46.4630103;11.8367923;POINT (11.8367923 46.4630103);Albergo Villetta Maria;hotel;;;;;;;;;;
5687797141;46.3725753;11.6577665;POINT (11.6577665 46.3725753);Active Alm Hotel;hotel;Via San Pellegrino;Moena;38035;11;;;;https://www.almhotel.it/;+39 388 8760326;info@almhotel.it
5694155294;46.0145383;11.3038108;POINT (11.3038108 46.0145383);B&B Zita;guest_house;Via dei Molini;Levico Terme;38056;1;;;;;;
5714187769;45.9302457;11.0445282;POINT (11.0445282 45.9302457);Residence Concaverde;hotel;Via Pasini;Pomarolo;;64;;;;https://www.residence-concaverde.it/;+39 0464 410218;info@residence-concaverde.it
5729955411;45.9848399;10.66892;POINT (10.66892 45.9848399);Albergo Genzianella;hotel;Via Benedetto Lucchi;;;6;;;;https://www.albergogenzianella.net/;+39 0465 901035;
5729955412;45.9838818;10.6708696;POINT (10.6708696 45.9838818);Albergo Roncone;hotel;;;;;;;;;;
5729955413;45.9855832;10.6616278;POINT (10.6616278 45.9855832);Miramonti Hotel;hotel;;;;;;;;;;
5729955414;45.9791182;10.666713;POINT (10.666713 45.9791182);Albergo Ginevra;hotel;;;;;;;;https://www.albergoginevra.com/;;
5729955417;45.9862829;10.6754166;POINT (10.6754166 45.9862829);Albergo Eden;hotel;;;;;;;;;;
5729955427;45.9967159;10.6893733;POINT (10.6893733 45.9967159);Agritur Cornasest;hotel;;;;;;;;https://agriturcornasest.it/;;
5729955428;45.9987437;10.6919712;POINT (10.6919712 45.9987437);Albergo Ristorante da Emilio;hotel;;;;;;;;http://www.albergodaemilio.it/;;
5729955429;46.0048434;10.6956278;POINT (10.6956278 46.0048434);Serena - Hotel;hotel;;;;;;;;http://hotelserena-trentino.it;;
5729955459;46.0053955;10.6965697;POINT (10.6965697 46.0053955);Albergo Ristorante Trento;hotel;;;;;;;;http://hotel-trento.it;;
5729955460;46.0065804;10.6978866;POINT (10.6978866 46.0065804);Hotel Carlone;hotel;;;;;;;;;;
5731537799;46.0430127;10.7217066;POINT (10.7217066 46.0430127);Bed&Breakfast Tianà;hotel;Via per Scraniga;Tione di Trento;38079;29;;;;;;
5731537802;46.0267989;10.7208187;POINT (10.7208187 46.0267989);Apartment in the mountains;hotel;;Tione di Trento;38079;15;;;;;;
5731537803;46.0100117;10.6999658;POINT (10.6999658 46.0100117);Belli Flora E Orlandi Maria Rosa Snc;hotel;Via Guglielmo Marconi;Breguzzo;38081;34;;;;;;
5761099531;45.8867229;10.8440235;POINT (10.8440235 45.8867229);IV Gardan;hotel;;;;;;;;https://holiday4gardan.it/;;
5784212155;46.4320344;11.6857183;POINT (11.6857183 46.4320344);Garni Mason Marmoleda;guest_house;;;;;;;;http://www.marmoleda.it;+39-0462-764119;
5788019354;46.4580695;11.7008847;POINT (11.7008847 46.4580695);Hotel Piz Boe';hotel;Strada Dolomites;Mazzin;38030;;;;;https://www.hotelpizboe.it/;+39 350 0820845;info@hotelpizboe.it
5805928657;45.8851534;11.0461621;POINT (11.0461621 45.8851534);Unnamed;guest_house;;;;;;;;;;
5841435268;46.2621158;11.7913793;POINT (11.7913793 46.2621158);Ostello San Martino;guest_house;Via Laghetto;San Martino di Castrozza;38054;43;;;;;;
5862942086;46.4753624;11.7743027;POINT (11.7743027 46.4753624);Unnamed;guest_house;;;;;;;;;;
5864823152;45.8838223;11.0185021;POINT (11.0185021 45.8838223);Colle Ameno;guest_house;;;;;;;;;;
5894378694;46.0715476;11.1256814;POINT (11.1256814 46.0715476);La loggia del castello;guest_house;Piazza della Mostra;;;25;;B&B;;laloggiadelcastello.com;+39 327 8339777;info@laloggiadelcastello.com
5905821608;46.0390815;11.2996182;POINT (11.2996182 46.0390815);Hotel Compet;hotel;Località Compet;Vignola-Falesina;38057;26;;;;;;
5994950135;46.0085217;11.3144247;POINT (11.3144247 46.0085217);Albergo Miravalle;hotel;Via Venezia;Levico Terme;38056;76;;;;;;
6011142676;46.0701882;11.1241105;POINT (11.1241105 46.0701882);Heart of Trento;guest_house;Vicolo del Vò;Trento;38122;27;;;;http://www.heartoftrento.com/;+39 327 1631980;info@heartoftrento.com
6112748885;46.260234;10.5845225;POINT (10.5845225 46.260234);Hotel- Ristorante La Torretta & Wellness Il Cirmolo;hotel;Via Circonvallazione;Passo del Tonale;38029;7;;;;https://hotellatorretta.com/;+39 0364 903978;info@hotellatorretta.com
6116685633;46.2602928;10.5893973;POINT (10.5893973 46.2602928);Family Hotel Adamello;hotel;Via S. Bartolomeo;Passo del Tonale;38029;22;;;;;;
6155338787;46.154571;10.7665337;POINT (10.7665337 46.154571);Olimpic Regina;hotel;;;;;;;;;;
6163067685;46.3805465;11.6657616;POINT (11.6657616 46.3805465);Hotel Zirmes;hotel;Strada de Pecé;;38035;10;;;;https://www.hotelzirmesmoena.it;+390462573160;info@hotelzirmesmoena.it
6173229186;46.065196;11.1230174;POINT (11.1230174 46.065196);Il Torrione;hotel;Piazza di Fiera;;38122;20;;;;https://iltorrione.trento.it;+39 0461 982991;
6184192387;46.3759126;11.0764195;POINT (11.0764195 46.3759126);Agritur Ciastel;guest_house;Piazza del Ciastel;Sanzeno;38010;8;;;;http://agriturciastel.it/;;info@agriturciastel.it
6200517845;46.3026519;10.8642872;POINT (10.8642872 46.3026519);Casa del Roccolo;chalet;;;;;;;Daniel Fantelli;;;
6215904302;46.417854;11.6700928;POINT (11.6700928 46.417854);Ciasa de la Lum;chalet;Strada de Val;Vigo di Fassa;38039;21;;;;https://www.fassappartamenti.it/it/s/vigodifassa/ciasa-de-la-lum-luigi-zulian;+39 0462 769068;
6240119224;46.4212934;11.6736089;POINT (11.6736089 46.4212934);Ciasa Weiss;chalet;;;;;;;;;;
6241737269;46.4201236;11.6700595;POINT (11.6700595 46.4201236);Mia Mason;chalet;;;;;;;;;;
6341429099;46.3150484;10.8000527;POINT (10.8000527 46.3150484);la Betulla;hotel;;;;;;;;;;
6341429314;46.3172622;10.8061132;POINT (10.8061132 46.3172622);Salvadori;hotel;;;;;;;;;;
6440299185;46.0434136;11.5523963;POINT (11.5523963 46.0434136);Unnamed;guest_house;;;;;;;;;;
6471851352;46.0720233;10.8967062;POINT (10.8967062 46.0720233);Dolce Vita Ambiez B&B;guest_house;Via al Belvedere;Dorsino;38078;1;;;Senti Francesca & C. Sas;https://www.dolcevitaambiez.it;+39 0465/730026;info@dolcevitaambiez.it
6555425121;45.9016028;10.7278054;POINT (10.7278054 45.9016028);B&B Anna Maria;guest_house;Via B. Daves;Ledro;38067;14;;;Santolini Annamaria;https://www.ledrobedandbreakfast.it/;+39 334 7732676;info@ledrobedandbreakfast.it
6575561385;45.8960204;10.8340025;POINT (10.8340025 45.8960204);Unnamed;hotel;;;;;;;;;;
6582328772;46.250464;11.1688966;POINT (11.1688966 46.250464);Garni Selene;guest_house;Piazza Fratelli Bronzetti;;38030;1;;;;;;
6588372538;46.3551978;10.6631446;POINT (10.6631446 46.3551978);Hotel Cristallo;hotel;;;;;;;;;;
6592578255;46.2598165;10.5846373;POINT (10.5846373 46.2598165);Alpencolor;hotel;Via Circonvallazione;Passo del Tonale;38029;4;;;;https://www.colorhoteltonale.it/;+39 345 1417810;info@colorhoteltonale.it
6592578269;46.2609598;10.5873407;POINT (10.5873407 46.2609598);Cielo Blu;hotel;Via Circonvallazione;Passo del Tonale;38029;16;;;;https://www.cielobluhotel.it/;+39 0364 903725;info@hotelcieloblu.com
6592578270;46.2599624;10.5872094;POINT (10.5872094 46.2599624);Albergo Angelo;hotel;Via San Bartolomeo;Passo del Tonale;38029;16;;;;;;
6592578275;46.260116;10.586372;POINT (10.586372 46.260116);Albergo Negritella;hotel;Via San Bartolomeo;Passo del Tonale;38029;21;;;;;;
6592578276;46.2596898;10.5868291;POINT (10.5868291 46.2596898);Hotel Gardenia;hotel;Via Nazionale;Passo del Tonale;38029;20;;;;;;
6592578277;46.2611396;10.589285;POINT (10.589285 46.2611396);Hotel Orchidea;hotel;Via Circonvallazione;Passo del Tonale;38029;24;;;;;;
6592578279;46.2601228;10.5885601;POINT (10.5885601 46.2601228);Hotel Gardenia;hotel;Via Nazionale;Passo del Tonale;38029;20;;;;;;
6592652529;46.2196548;10.8894126;POINT (10.8894126 46.2196548);Rifugio Graffer al Grostè;alpine_hut;;;;;;;;http://www.graffer.com/;+39 0465 441358;rifugio@graffer.com
6594058525;46.2807973;10.8329956;POINT (10.8329956 46.2807973);Rifugio Solander;hotel;;;;;;;;https://www.rifugiosolander.com/;+39 0463 973146;nfo@rifugiosolander.com
6594063976;46.2397382;10.8374609;POINT (10.8374609 46.2397382);Golf Hotel Campiglio;hotel;Via Cima Tosa;Madonna di Campiglio;38086;3;;;;https://www.thcampiglio.it/;+39 049 2956411;golfhotel@th-resorts.com
6594064625;46.2260393;10.8754306;POINT (10.8754306 46.2260393);Rifugio Boch;alpine_hut;Località Intermedia Grostè;Madonna di Campiglio;38084;;;;;;+39 0465 440465;
6594069122;46.2751328;10.8262382;POINT (10.8262382 46.2751328);Rifugio Orso Bruno;hotel;Via F. Ciolli;Malé;38027;3;;;;https://www.rifugioorsobruno.it/;+39 0463 796160;info@rifugioorsobruno.it
6606534237;46.1654721;11.1131373;POINT (11.1131373 46.1654721);B&B Fiordaliso;guest_house;Via del Mas Goset;Lavis;38015;37;;;Laura;;;
6611543380;46.000521;11.2702406;POINT (11.2702406 46.000521);Agritur Perotin;hotel;;;;;;;;;;
6611557699;46.0017484;11.2679581;POINT (11.2679581 46.0017484);Agriturismo Corte delle Mele;hotel;;;;;;;;;;
6712688794;46.1613802;11.0935199;POINT (11.0935199 46.1613802);Agritur Clementi;guest_house;Località Tremol;Terre d'Adige;38097;4c;;;;http://www.agriturclementi.it/;;clementi.sergio@hotmail.com
6741919025;46.072318;11.5066754;POINT (11.5066754 46.072318);B&B Elisa;guest_house;Via Cenone;Castel Ivano;38059;35/1;;;;;;
6776197258;45.8869601;10.8385568;POINT (10.8385568 45.8869601);Antiche Mura;hotel;;;;;;;;https://www.antiche-mura.it/;+39 0464 556063;
6778861498;45.8960393;10.9401381;POINT (10.9401381 45.8960393);Hotel Santa Barbara;hotel;Via Monte Velo;Ronzo-Chienis;38060;11;;;;;+39 0464 802919;
6778892589;45.886539;10.91736;POINT (10.91736 45.886539);Agriturismo Maso Naranch;hotel;;Mori;38065;;;;;https://www.naranch.it/en/maso-naranch/;+39 329 221 2978;
6796837006;46.007459;11.3339173;POINT (11.3339173 46.007459);B&B Airone;hotel;Strada Romana;Levico Terme;38056;28b;;;;;;
6818016148;46.3034676;11.4553915;POINT (11.4553915 46.3034676);Pensione Serenetta;guest_house;Via Mercato;Varena;38030;22;;;;https://www.pensioneserenetta.it/;+39 462 340342;pensione.serenetta@virgilio.it
6837133488;46.0312991;10.5132976;POINT (10.5132976 46.0312991);Unnamed;caravan_site;;;;;;;;;;
6853587131;46.0609201;11.1179789;POINT (11.1179789 46.0609201);B&B Nicole;guest_house;Via Giovanni Pascoli;;;8/1;;;;;;
6861471831;45.8862442;10.8403761;POINT (10.8403761 45.8862442);La Montanara;hotel;Via Montanara;;;18;;;;;;
6875324215;46.089778;11.003847;POINT (11.003847 46.089778);B&B Sissi;guest_house;Via al Belvedere;;;31;;;;;;
6915290154;46.0544528;11.4215591;POINT (11.4215591 46.0544528);Coronata Haus;guest_house;;Roncegno Terme;38050;;;;;https://www.coronatahaus.it/;+39 0461 1851508;info@coronatahaus.it
6961496022;46.0641855;11.1315955;POINT (11.1315955 46.0641855);B&B Rosagalina;guest_house;Via Zara;Trento;38122;8c;;;;;;
6969592696;46.3687652;11.0791328;POINT (11.0791328 46.3687652);Il Nido dei Sogni di Marco Paseri;guest_house;Via della Trazzia;Sanzeno;38010;24;;"Alloggio 
Appartamento";;;;
7177341249;46.0888242;11.0132425;POINT (11.0132425 46.0888242);La Dolce Mela;guest_house;;;;;;;;;+393465341849;
7546079259;45.8209859;10.9670439;POINT (10.9670439 45.8209859);Miramonti Pizzeria Cucina B&B;guest_house;Via Giuseppe Mazzini;Brentonico;38060;97;pizza;;Francesca Peroni;https://www.miramonti-brentonico.com/;+39 0464 395112;
7580327460;45.9140018;11.1709974;POINT (11.1709974 45.9140018);Unnamed;caravan_site;;;;;;;;;;
7705387589;46.1340366;10.7546467;POINT (10.7546467 46.1340366);Gnèzi;chalet;;;;;;;;;;
7711734779;46.1003912;11.4876901;POINT (11.4876901 46.1003912);La Ruscoletta;hotel;;Telve;38050;3;regional;;;;;
7778313907;46.1318627;11.4787763;POINT (11.4787763 46.1318627);B&B Pra dei Cervi;guest_house;;Telve;38050;;;;;;;
7810372313;46.1084942;11.33237;POINT (11.33237 46.1084942);Agritur Klopfhof;guest_house;Maso San Lorenzo;Fierozzo;38050;16;;;Barbara Pisette;https://www.klopfhof.it/;+39 347 291 4399;info@klopfhof.it
7835867185;46.2240609;11.3400692;POINT (11.3400692 46.2240609);El Bait del Gian;chalet;Strada forestale Montalbiano-Excapitolare;;;;;;;;;
7851235246;46.3266045;11.0231244;POINT (11.0231244 46.3266045);Hotel Tuenno;hotel;Piazza Alpini;Tuenno;38019;25;;;;https://www.albergotuenno.com/;+39 0463 450454;info@albergotuenno.com
7858386423;46.3906833;10.893344;POINT (10.893344 46.3906833);Malga Mondent alta;alpine_hut;;;;;;;;;"+39 328 2555273; +39 333 2366967";
7881230369;46.4208185;11.6745369;POINT (11.6745369 46.4208185);Hotel Corona;hotel;;;;;;;;;;
7906581579;46.113209;11.2970847;POINT (11.2970847 46.113209);Mas dei Osti;hotel;;;;;;;;;;
8167053768;46.2178667;11.1534818;POINT (11.1534818 46.2178667);La Ferrata;guest_house;Località Cadino;San Michele all'Adige;38010;1;;;;https://www.laferrata.com/;+390461650409;info@laferrata.com
8245065529;45.9697174;10.9429275;POINT (10.9429275 45.9697174);La Gazza Ladra Apartments;hotel;Via al Castello;Drena;38074;;;;;www.lagazzaladra.eu;+39 340 7357568;
8245190783;45.9696159;10.9447079;POINT (10.9447079 45.9696159);Castle Rock;hotel;Via Giovanni Segantini;Drena;38074;35;;;;;+39 346 0117564;
8261216789;46.0377604;11.1042212;POINT (11.1042212 46.0377604);B&B Villa Sizzo Relais;guest_house;Via Centrale;Ravina;38123;18;;;;https://www.villasizzo.it;+39 0461 175 0000;info@villasizzo.it
8418923017;45.9339912;11.2265061;POINT (11.2265061 45.9339912);Albergo Centrale;hotel;;;;;;;;;;
8506320846;45.984724;10.6704628;POINT (10.6704628 45.984724);Unnamed;guest_house;;;;;;;;;;
8506544451;45.9359785;10.6387745;POINT (10.6387745 45.9359785);Albergo Italia Borel;hotel;;;;;;;;;;
8567859619;46.4168836;11.2059557;POINT (11.2059557 46.4168836);Garnì Petra;guest_house;Via Gruppo Brenta;Ruffrè-Mendola;38010;9;;;;https://www.garnipetra.it/;+39 335 6684804;
8584457115;46.2484475;11.0334331;POINT (11.0334331 46.2484475);B&B Al Trifoglio;guest_house;Via Castel Belasi;Segonzone;38010;8;;;Turrini Andrea;https://www.trifogliovaldinon.com/;+39 0461 655332;info@trifogliovaldinon.com
8605912549;46.3975486;11.1239142;POINT (11.1239142 46.3975486);La Quiete Resort;hotel;Via Guglielmo Marconi;Romeno;38010;12;;;;https://www.laquieteresort.it/;+39 0463876050;info@laquieteresort.it
8605912550;46.3956088;11.1214327;POINT (11.1214327 46.3956088);Albergo Villanuova;hotel;Via Mario Zucali;Romeno;38010;37;;;;https://www.villanuova.it/;+39 0463 875113;info@villanuova.it
8635123571;45.9135211;10.7279552;POINT (10.7279552 45.9135211);Hotel Ristorante Bar Da Elda;hotel;Via 3 Giugno;Lenzumo;38067;3;;;;https://www.ledronatura.it/;+39 0464 591040;info@ledronatura.it
8669878777;46.2557652;11.0380974;POINT (11.0380974 46.2557652);La Casa del Sole;guest_house;Via Soi;Campodenno;38010;12;;;;https://www.beblacasadelsoletrentino.com/;+39 0461 655049;bb.lacasadelsole.trentino@gmail.com
8701286579;45.9622358;10.9116349;POINT (10.9116349 45.9622358);Un tempo per Te;guest_house;Via Torre;Dro;38074;6;"italian;regional;international";;;https://www.untempoperte.it;+39 333 364 9554;info@untempoperte.it
8749330917;46.1605589;11.7432306;POINT (11.7432306 46.1605589);Albergo Cima D'Asta;hotel;Loc. Cicona;;38050;1;;;;;;
8781167513;46.4126152;11.6592237;POINT (11.6592237 46.4126152);Hotel Fontana;hotel;Strada de Valongia;;38039;36;;;;https://www.hotelfontana.net/;+39 0462 769090;info@hotelfontana.net
8869260232;45.8979617;10.7081652;POINT (10.7081652 45.8979617);Agritur La Dasa;guest_house;Località Derco;Ledro;38067;5;;;;https://www.agriturladasa-ledro.it;+39 3801080589;
8901501548;46.1593152;11.1539342;POINT (11.1539342 46.1593152);Boscati B&B;guest_house;Via dei Boscati;Verla di Giovo;38030;;;;;;;
8956470358;45.9275431;10.8812396;POINT (10.8812396 45.9275431);Da La Babi B&B;guest_house;Località Laghel;Arco;;23;;;;;;
9067461582;45.8165951;10.9544171;POINT (10.9544171 45.8165951);Villa Monica;hotel;Via Mantova;;;8;;;;https://www.villa-monica.it/;;
9073442940;45.9528638;10.9083373;POINT (10.9083373 45.9528638);Agritur Santa Lucia;guest_house;;Dro;38074;3;;;;https://www.agritursantalucia.com/;+39.0464 076188;info@agritursantalucia.com
9105591762;45.8889386;10.8396491;POINT (10.8396491 45.8889386);Dal Nonno;guest_house;Via Ardaro;;38066;8;;;;;;
9114094361;46.2397114;11.062924;POINT (11.062924 46.2397114);Casa Fiorita;guest_house;;;;;;;;https://www.ospitar.it/;;
9133414627;46.2980921;11.5972651;POINT (11.5972651 46.2980921);Agritur Col Verde;guest_house;Strada ai Bersagli;;;2a;;;;https://www.agriturcolverde.it/;+390462500080;
9142136107;46.1620049;11.1129425;POINT (11.1129425 46.1620049);Agritur Maso Rover;guest_house;Località Maso Rover;Lavis;38015;4;;;Alessandro e Licia;;+39 348 7379367;
9144412346;46.4759491;11.7398949;POINT (11.7398949 46.4759491);Villa Kofler;hotel;;;;;;;;;;
9144490190;46.4766073;11.743307;POINT (11.743307 46.4766073);Grohmann;hotel;Strèda Dolomites;Campitello di Fassa;38031;80;;;;https://www.unionhotelscanazei.it/;+39 0462 601033;info@unionhotelscanazei.it
9144490192;46.4765785;11.7448491;POINT (11.7448491 46.4765785);Stella Alpina;hostel;;;;;;;;;;
9144688120;46.4761859;11.742131;POINT (11.742131 46.4761859);Hotel Ladina;hotel;Strèda de Pecei;Campitello di Fassa;38031;3;;;;https://www.hotelladina.it/;+39 0462 750501;info@hotelladina.it
9144797394;46.4756494;11.7395648;POINT (11.7395648 46.4756494);Cesa da Mont;hotel;;;;;;;;;;
9144797403;46.4757046;11.7384874;POINT (11.7384874 46.4757046);Hotel Villa Campitello;hotel;Strèda Roma;Campitello di Fassa;38031;2;;;;https://villacampitello.com/;+39 0462 750002;hotel@villacampitello.com
9144797517;46.4770476;11.7372903;POINT (11.7372903 46.4770476);Hotel Stella Montis;hotel;;;;;;;;;;
9146176787;46.0679594;11.1205332;POINT (11.1205332 46.0679594);Al Cavour 34;guest_house;Via Camillo Benso Cavour;Trento;38122;34;;;;https://www.alcavour34.it/;;alcavour34@gmail.com
9147739372;45.9622351;10.9122428;POINT (10.9122428 45.9622351);Giardino alla torre;guest_house;Via Olivo;Dro;38074;3;;;;https://www.giardinoallatorre.it;+39 333 3001686;giardinoallatorredro@gmail.com
9151023928;45.966951;10.9136362;POINT (10.9136362 45.966951);Agritur Oltra / Benuzzi-Oberhofer;guest_house;Località Oltra;Dro;38074;3;;;;https://www.agritur-oltra.com/;+39 (0464) 504218;
9160401412;45.9507943;10.900894;POINT (10.900894 45.9507943);Garnì delle Rose;guest_house;Via Arco;Ceniga;38074;34;;;;https://www.hotelgarnidellerose.com/;;
9176586464;45.9032858;10.8596261;POINT (10.8596261 45.9032858);Hotel Rolly;hotel;Località San Tomaso;Riva del Garda;38066;39;;;;https://www.albergorolly.it/;+39 0464 553370;info@albergorolly.it
9216577017;46.0959588;11.0172685;POINT (11.0172685 46.0959588);Unnamed;caravan_site;;;;;;;;;;
9221875145;46.0752276;11.1372737;POINT (11.1372737 46.0752276);Be Place;hotel;;;;;;;;https://hotelbeplace.com/;+390461418822;
9460472474;46.3813928;11.6634576;POINT (11.6634576 46.3813928);Area Camper Fantolin;caravan_site;;;;;;;;;;
9466134695;45.9562769;10.9038432;POINT (10.9038432 45.9562769);Agritur Vin e Amor;guest_house;Via dei Colli;Dro;38074;2a;;;;;;
9467974791;45.8833663;10.855996;POINT (10.855996 45.8833663);Hotel Garda Life;hotel;Via Gorizia;Riva del Garda;38066;5;;;;https://www.hotelgardalife.com;+39 0464520876;info@hotelgardalife.com
9468893792;45.9603618;10.909124;POINT (10.909124 45.9603618);B&B Sarca Valley;guest_house;Via Roma;Dro;38074;35a;;;;;;
9499321202;46.3011614;10.812485;POINT (10.812485 46.3011614);Residence Il Vigo Di Marilleva;hotel;Via per Marilleva;Marilleva 1400;38020;3;;;;;;
9499362219;46.3020059;10.8090427;POINT (10.8090427 46.3020059);TH Marilleva;hotel;Via per Marilleva;Marilleva 1400;38020;81;;;;;;
9505679100;46.2997339;10.8662274;POINT (10.8662274 46.2997339);Hotel Splendor;hotel;Via Madonna delle Nevi;Folgarida (TN);38025;3;;;;;+390463986375;info@splendorhotel.it
9543090156;46.3554759;10.6922827;POINT (10.6922827 46.3554759);Domina Parco dello Stelvio;hotel;Via di Sant'Antonio;Cogolo;38024;16;;;;https://www.hotelstelviodomina.it/;+390463754553;info@hotelstelviodomina.it
9543301990;46.2611646;10.5903692;POINT (10.5903692 46.2611646);Gran Baita;hotel;;Passo del Tonale;38029;;;;;;;
9551518791;46.0894851;11.5986461;POINT (11.5986461 46.0894851);Camping Lagorai;camp_site;;;;;;;;;;
9556048413;46.4193009;11.6679986;POINT (11.6679986 46.4193009);Hotel Miramonti;hotel;Strada di Molins;Vigo di Fassa;38036;10;;;;https://www.miramonti.net/;+39 0462 764121;info@miramonti.net
9556094640;46.421971;11.6770056;POINT (11.6770056 46.421971);Hotel Crescenzia;hotel;Strada de Sèn Jan;Vigo di Fassa;38036;49;;;;http://www.hotelcrescenzia.com/;+39 0462 764112;info@hotelcrescenzia.com
9556095076;46.4211459;11.6722682;POINT (11.6722682 46.4211459);Hotel Vigo;hotel;Strada de Piz;Vigo di Fassa;38039;13;;;;https://www.hotelvigo.it/;+39 0462 764180;info@hotelvigo.it
9556120332;46.4246153;11.6785422;POINT (11.6785422 46.4246153);Alpine Touring Hotel;hotel;Strada de Troi de Vich;Pozza di Fassa;38036;72;;;;https://www.touringhotel.info/;+39 0462763268;mail@touringhotel.info
9556164842;46.4260258;11.6804231;POINT (11.6804231 46.4260258);Hotel Villa Gemmy;hotel;Troi de col dapra;Pozza di Fassa;38036;1;;;;https://www.hotelgemmy.com/;+39 0462 763218;info@hotelgemmy.com
9556168747;46.4210326;11.6817643;POINT (11.6817643 46.4210326);Hotel Dolomiti;hotel;Strada Dolomites;Vigo di Fassa;38039;16;;;;http://www.hoteldolomiti.net/;+39 0462 764131;info@hoteldolomiti.net
9556170787;46.4194315;11.6811169;POINT (11.6811169 46.4194315);Hotel Millenium;hotel;Strada de Pra dal Monech;Vigo di Fassa;38036;19;;;;http://www.starmillennio.com/;+39 0462 764155;hotel.millennium@tiscali.it
9556172296;46.4301356;11.6915156;POINT (11.6915156 46.4301356);Hotel Meida;hotel;Strada de Meida;Pozza di Fassa;38036;67;;;;https://www.hotelmeida.it/;+39 0462 764283;info@hotelmeida.it
9556173534;46.4205447;11.6818261;POINT (11.6818261 46.4205447);Hotel San Giovanni;hotel;Strada Dolomites;Vigo di Fassa;38039;16;;;;https://www.hotelsangiovanni.it/;+39 0462 764197;info@hotelsangiovanni.it
9556173908;46.4185241;11.6771902;POINT (11.6771902 46.4185241);Hotel Ai Pini;hotel;Strada Neva;Vigo di Fassa;38036;97;;;;https://www.hotelaipini.net/;+39 0462 764501;info@hotelaipini.net
9556186052;46.4295084;11.6933397;POINT (11.6933397 46.4295084);Park Hotel Aurora;hotel;Strada de Meida;Pozza di Fassa;38036;130;;;;http://www.parkhotelaurora.com/;+39 0462 764166;info@parkhotelaurora.com
9556221850;46.4353437;11.690654;POINT (11.690654 46.4353437);Hotel Crepei;hotel;Strada Jumela;Pera di Fassa;38036;2;;;;https://www.hotelcrepei.com/;+39 0462 764103;info@hotelcrepei.com
9556225334;46.4297203;11.6854411;POINT (11.6854411 46.4297203);Hotel Monzoni;hotel;Strada Dolomites;Pozza di Fassa;38036;137;;;;https://www.hotel-monzoni.it/;+39 0462 764280;monzoni@garibaldihotels.it
9556226751;46.4305073;11.6884407;POINT (11.6884407 46.4305073);Hotel El Pilon;hotel;Strada de Meida;Pozza di Fassa;38036;25;;;;https://www.hotelelpilon.it/;+39 0462 764238;info@hotelelpilon.it
9556228121;46.4303512;11.6887969;POINT (11.6887969 46.4303512);Hotel Laurino;hotel;Strada de Meida;Pozza di Fassa;38036;41;;;;http://www.hotellaurino.it/;+39 0462 764125;info@hotellaurino.it
9556228168;46.4312313;11.6910814;POINT (11.6910814 46.4312313);Hotel Sas Morin;hotel;Strada Donato Zeni;Pozza di Fassa;38036;6;;;;https://www.sasmorin.it/;+39 0462 764419;info@sasmorin.it
9556232651;46.430169;11.6911021;POINT (11.6911021 46.430169);Hotel Villa Cima Undici;hotel;Strada de Meida;Pozza di Fassa;38036;63;;;;http://www.hotelcimaundici.it/;+39 0462 764220;info@hotelcimaundici.it
9556234241;46.4298844;11.6902881;POINT (11.6902881 46.4298844);Hotel El Geiger;hotel;Strada de Meida;Pozza di Fassa;38036;60;;;;http://www.hotelelgeiger.com/;+39 0462 764264;info@hotelelgeiger.com
9556248532;46.4315307;11.6889013;POINT (11.6889013 46.4315307);Hotel Alaska;hotel;Strada Larsech;Pozza di Fassa;38036;11;;;;http://www.hotelalaska.net/;+39 0462 764091;info@hotelalaska.net
9556249058;46.4350011;11.68889;POINT (11.68889 46.4350011);Hotel Europa;hotel;Strada Dolomites;Pera di Fassa;38036;159;;;;https://www.hoteleuropavaldifassa.com/;+39 0462 764158;info@hoteleuropavaldifassa.com
9556249060;46.440203;11.6929824;POINT (11.6929824 46.440203);Hotel El Paster;hotel;Strada Tita Piaz;Pera di Fassa;38036;36;;;;https://www.hotelelpaster.it/;+39 0462 764019;info@hotelelpaster.it
9556256843;46.4731712;11.7358582;POINT (11.7358582 46.4731712);Hotel Flora Alpina;hotel;Strèda Dolomites;Campitello di Fassa;38031;8;;;;https://www.hotelfloraalpina.it/;+39 0462 750233;info@hotelfloraalpina.it
9556265935;46.47256;11.7360421;POINT (11.7360421 46.47256);Alpen Hotel Panorama;hotel;Strèda Ciadenac;Campitello di Fassa;38031;7;;;;https://www.panoramahotel.it/;+39 0462 750112;info@panoramahotel.it
9556271758;46.435101;11.6903145;POINT (11.6903145 46.435101);Hotel Mary;hotel;Strada Dolomites;Pera di Fassa;38036;144;;;;https://www.maryhotel.it/;+39 0462 764108;info@hotelmary.it
9556282801;46.4610149;11.7053388;POINT (11.7053388 46.4610149);Hotel Regina e Fassa;hotel;Streda de Rotic;Mazzin;38030;1;;;;https://www.clubhotelregina.it/;+39 0462 767130;info@clubhotelregina.it
9556294626;46.3812313;11.6655185;POINT (11.6655185 46.3812313);Hotel Fanes;hotel;Strada de Pece';Moena;38035;5;;;;https://www.hotelfanes.com/;+39 353 3528569;info@hotelfanes.com
9556318135;46.4755967;11.7448732;POINT (11.7448732 46.4755967);Park Hotel Fedora;hotel;Strada Veia;Campitello di Fassa;38031;18;;;;https://www.fedorahp.com/;+39 0462 750505;hotel@fedorahp.com
9556319601;46.473915;11.7380147;POINT (11.7380147 46.473915);Hotel Salvan;hotel;Strèda Dolomites;Campitello di Fassa;38031;10;;;;https://www.hotelsalvan.it/;+39 0462 750307;info@hotelsalvan.it
9556328387;46.4745332;11.7381774;POINT (11.7381774 46.4745332);Hotel Rododendro;hotel;Strèda Dolomites;Campitello di Fassa;38031;45;;;;https://www.hotelrododendro.com/;+39 0462 750368;info@hotelrododendro.com
9556333818;46.4749371;11.7381524;POINT (11.7381524 46.4749371);Hotel Relais San Giusto;hotel;Strèda Roma;Campitello di Fassa;38031;1;;;;https://www.san-giusto.it/;+39 0462 750331;info@san-giusto.it
9556336366;46.4158956;11.6695322;POINT (11.6695322 46.4158956);Hotel Belvedere;hotel;Strada Murada;Vigo di Fassa;38036;3;;;;http://www.hotelbelvedere.tn.it/;+39 339 5715097;info@hotelbelvedere.tn.it
9556338681;46.4754028;11.7399337;POINT (11.7399337 46.4754028);Hotel Alaska;hotel;Strèda Dolomites;Campitello di Fassa;38031;36;;;;https://www.hotelalaskavaldifassa.com/;+39 0462 750430;info@hotelalaskavaldifassa.com
9556350240;46.4752706;11.7432379;POINT (11.7432379 46.4752706);Hotel Gran Chalet Soreghes Vital;hotel;Via Pént de Sèra;Campitello di Fassa;38031;18;;;;https://www.hotelsoreghes.com/;+39 0462 750060;info@hotelsoreghes.com
9556350328;46.4745274;11.7394093;POINT (11.7394093 46.4745274);Hotel Crepes De Sela;hotel;Strèda Dolomites;Campitello di Fassa;38031;22;;;;https://www.crepesdesela.it/;+39 0462 750538;info@crepesdesela.it
9556356591;46.4162245;11.6687547;POINT (11.6687547 46.4162245);Hotel Ciarnadoi;hotel;Strada Veia;Vigo di Fassa;38036;2;;;;https://www.hotelciarnadoi.it/;+39 0462 769110;info@hotelciarnadoi.it
9556360565;46.4770088;11.7436689;POINT (11.7436689 46.4770088);Hotel Primula;hotel;Strèda Dolomites;Campitello di Fassa;38031;91;;;;https://www.albergoprimula.it/;+39 0462 750369;info@albergoprimula.it
9556360789;46.4186574;11.6688475;POINT (11.6688475 46.4186574);Hotel Vael;hotel;Strada Rezia;Vigo di Fassa;38036;39;;;;http://www.hotelvael.it/;+39 0462 764110;info@hotelvael.it
9556361934;46.4768539;11.742823;POINT (11.742823 46.4768539);Hotel Villa Rosa;hotel;Strèda Dolomites;Campitello di Fassa;38031;87;;;;https://www.hotelvillarosa.net/;+39 0462 750422;info@hotelvillarosa.net
9556394744;46.4072967;11.6564685;POINT (11.6564685 46.4072967);Hotel Gran Mugon;hotel;Strada de Tamion;Vigo di Fassa;38036;3;;;;https://www.hotelgranmugon.com/;+39 0462 769108;info@hotelgranmugon.com
9556412533;46.348249;11.6287728;POINT (11.6287728 46.348249);Hotel Val Sorda;hotel;Strada de la Comunità de Fiem;Moena;38035;47;;;;https://www.hotelvalsorda.com/;+39 0462 775115;info@hotelvalsorda.com
9556642712;46.3977422;11.6695078;POINT (11.6695078 46.3977422);Wellness Hotel Dolomia;hotel;Strada da Molin;Soraga di Fassa;38030;2;;;;https://www.dolomiahotel.com/;+39 0462 768107;info@dolomiahotel.com
9556643008;46.3982281;11.6720138;POINT (11.6720138 46.3982281);Hotel La Molinella;hotel;Strada de Molin;Soraga di Fassa;38030;16;;;;https://www.hotellamolinella.it/;+39 0462 768153;info@hotellamolinella.it
9556648816;46.3986586;11.6662705;POINT (11.6662705 46.3986586);Hotel Madonnina Resort and Wellness;hotel;Strada de Barbida;Soraga di Fassa;38030;36;;;;https://www.hotelmadonnina.com/;+39 0462 768106;info@hotelmadonnina.com
9556683081;46.3933936;11.6658954;POINT (11.6658954 46.3933936);Romantic Hotel Rosalpina;hotel;Strada de Palua;Soraga di Fassa;38030;2;;;;http://www.hotelrosalpina.com;+39 0462 768137;christian@hotelrosalpina.eu
9558402975;46.3752806;11.6588193;POINT (11.6588193 46.3752806);Sport hotel San Vigilio;hotel;L Vial;Moena;38035;23;;;;https://www.sporthotelsvigilio.com/;+39 0462 573239;info@sporthotelsvigilio.com
9558425825;46.3767631;11.660216;POINT (11.660216 46.3767631);Hotel Faloria;hotel;Piaz de Sotegrava;Moena;38035;18;;;;https://www.hotelfaloria.it/;+39 0462 573149;info@hotelfaloria.it
9561942611;46.2839166;10.6596292;POINT (10.6596292 46.2839166);Chalet al Foss Alp Resort;hotel;;;;;;;;;;
9609477680;46.3112631;11.6146751;POINT (11.6146751 46.3112631);Unnamed;caravan_site;;Predazzo;;;;;;;;
9643492600;45.8902378;11.0345605;POINT (11.0345605 45.8902378);Residence alle Grazie;hotel;Piazzale Orsi;Rovereto;38068;25;;;;https://www.cityresidencesrl.it/;;
9676790809;46.3788152;11.6587909;POINT (11.6587909 46.3788152);Hotel La Serenella;hotel;Strada de Moene;Moena;38035;47;;;;;;
9819191956;46.3918884;11.0449955;POINT (11.0449955 46.3918884);Viridis Hotel Risotrante;hotel;;;;;;;;https://www.viridishotel.it/;+39 0463 431048;info@viridishotel.it
9819235897;46.3932628;11.0465075;POINT (11.0465075 46.3932628);Agritur Vista Lago;guest_house;;;;;;;;;;
9830386854;45.9186697;10.8787976;POINT (10.8787976 45.9186697);Residenza Villa Werder - Amici Di Casa Molinari;hotel;Viale dei Capitelli;Arco;38062;13;;;;;;
9833367788;45.914523;10.8841495;POINT (10.8841495 45.914523);Monastero Arx Vivendi;hotel;Via Mantova;Arco;38062;13;;;;https://www.monastero-arxvivendi.com;+39 0464748059;
9835241702;45.9215157;10.8767916;POINT (10.8767916 45.9215157);Arcolive;guest_house;Via Lomego;Arco;38062;1;;;;https://www.arcolive.it/;+39 349 1614749;info@arcolive.it
9836676659;45.9104747;10.8775792;POINT (10.8775792 45.9104747);Agriturismo Il Melograno;guest_house;Via San Sisto;Arco;38062;42;;;;https://www.agriturilmelograno.it/;+39 335 6948617;info@agriturilmelograno.it
9837234665;45.8896151;10.8783457;POINT (10.8783457 45.8896151);La Rosa dei Venti;guest_house;Via Cantina;Arco;38062;6;;;;https://bblarosadeiventi.it/;+39 348 8219350;info@bblarosadeiventi.it
9837968973;46.2900055;11.4386641;POINT (11.4386641 46.2900055);Hotel Corona;hotel;;;;;;;;;;
9845827818;45.880404;10.8748965;POINT (10.8748965 45.880404);"Cantina Madonna delle Vittorie;Frantoio Madonna delle Vittorie";guest_house;Via Linfano;Arco;38062;81;;;;https://madonnadellevittorie.it/;+39 0464 505432;
9847918412;46.3814704;11.1066564;POINT (11.1066564 46.3814704);Albergo Ciclamino;hotel;Via di S. Cristoforo;Romeno;38010;30;;;;https://www.hotelciclamino.com/;+39 0463 875146;info@hotelciclamino.com
9855250736;45.8931965;10.866654;POINT (10.866654 45.8931965);Blue Moon;guest_house;Via Monte Brione;Arco;38062;28;;;;;+39 393 8559193;
9855283925;45.8969673;10.8671147;POINT (10.8671147 45.8969673);O-Live Agriresort;guest_house;Via Monte Brione;Arco;38062;2a;;;;https://www.o-liveresort.com/;+39 338 4683246;info@o-liveresort.com
9858434789;45.9057051;10.868103;POINT (10.868103 45.9057051);Agriturismo Linda;guest_house;Via San Isidoro;Arco;;12;;;;www.agriturismolinda.it;+39 345 1011448;info@agriturismolinda.it
9859772309;46.4244911;11.1516911;POINT (11.1516911 46.4244911);Stella Delle Alpi;hotel;Via Mendola;Ronzone;38010;41;;;;https://www.stelladellealpi.it/;+39 463 88 06 20;info@stelladellealpi.it
9859803068;46.4170808;11.190135;POINT (11.190135 46.4170808);Garni Biancaneve;hotel;;Ruffré-Mendola;38010;14;;;;https://www.garnibiancaneve.it/;+39 0471 632268;info@garnibiancaneve.it
9859803581;46.4436678;11.1418497;POINT (11.1418497 46.4436678);Hotel Lago Smeraldo;hotel;Via Lago Smeraldo;Fondo;38013;12;;;;https://www.hotellagosmeraldo.it/;+39 0463 831104;info@hotellagosmeraldo.it
9859816848;46.365089;11.0333775;POINT (11.0333775 46.365089);Hotel Antica Trattoria;hotel;Via Roma;Cles;38023;13;;;;https://www.anticatrattoriacles.com;+390463600169;info@anticatrattoriacles.it
9859835472;46.417277;11.1662202;POINT (11.1662202 46.417277);Wellness Hotel Waldheim;hotel;;Sarnonico;38010;1;;;;https://www.hotelwaldheim.it/;+39 0463 870156;info@hotelwaldheim.it
9859869741;46.3423915;11.1059673;POINT (11.1059673 46.3423915);Hotel Antica Torre;hotel;Via Alla Torre;Smarano;38012;7;;;;https://www.anticatorrehotel.com/;+39 0463 897335;info@anticatorrehotel.com
9860007176;46.4407931;11.01763;POINT (11.01763 46.4407931);Hotel Cavallino Bianco;hotel;Piazza Marcena;Rumo;38020;6;;;;https://www.cavallinobiancorumo.it/;+39 0463 531040;info@cavallinobiancorumo.it
9860011063;46.4071656;11.144964;POINT (11.144964 46.4071656);Royal Hotel Paolino;hotel;Via Italia;Cavareno;38011;3;;;;https://www.hotelpaolino.com/;+39 0735 651378;info@hotelpaolino.com
9860040852;46.441359;11.0185762;POINT (11.0185762 46.441359);Hotel Margherita;hotel;Via Merano;Rumo;38020;8;;;;https://www.hotelmargheritarumo.it/;+39 0463 530531;info@hotelmargheritarumo.it
9860089217;46.4320426;11.1496886;POINT (11.1496886 46.4320426);Bucaneve;hotel;Viale Belvedere;Malosco;38013;20;;;;http://www.albergo-bucaneve.com;+39 0463 831440;info@albergo-bucaneve.com
9861124452;45.889876;10.8626096;POINT (10.8626096 45.889876);Theresia;guest_house;Via Tenente Miorelli;Riva del Garda;38066;28;;;;https://www.bebtheresia.it/;+39 0464 555341;info@bebtheresia.it
9861891621;45.8957594;10.85715;POINT (10.85715 45.8957594);Casa di Campagna;guest_house;Via Grez;Riva del Garda;38066;78;;;;https://www.casadicampagna.info/;+39 0464 567562;info@casadicampagna.info
9865901737;45.8850411;10.8638849;POINT (10.8638849 45.8850411);Oleeva Garda Living;guest_house;Via Brione;Riva del Garda;38066;62a;;;;https://www.oleeva.it/;+39 0464 748065;info@oleeva.it
9869823111;45.8910964;10.8598394;POINT (10.8598394 45.8910964);Agritur Planchenstainer;guest_house;Via Tenente Miorelli;Riva del Garda;38066;60a;;;;http://www.agriturplanc.it/;+39 3331239012;planchenstainer@tiscali.it
9874178936;45.8879104;10.7308103;POINT (10.7308103 45.8879104);Dalla fattoria della Patty;guest_house;Via Alzer;Pieve di Ledro;38067;2;;;;;;
9882505766;45.8988826;10.8689627;POINT (10.8689627 45.8988826);Agritur Giovanazzi;guest_house;Via Isce;Arco;38062;1;;;;https://www.agriturgiovanazzi.com;+39 0464 666 815;
9918516184;45.8990731;10.8561715;POINT (10.8561715 45.8990731);B&B Morelli;guest_house;Via Ippolito Pederzolli;Riva del Garda;38066;11;;;;https://bbmorelli.business.site/;+39 333 137 6662;
9923921613;45.8818646;10.8532199;POINT (10.8532199 45.8818646);Hotel Du Lac Et Du Parc;hotel;Viale Rovereto;Riva del Garda;38066;44;;;;https://dulacetduparc.com/;+39 0464 566600;info@dulacetduparc.com
9948742282;45.8892538;10.6706806;POINT (10.6706806 45.8892538);Vittoria;hotel;Piazza Milìn;Ledro;38067;1;;;;;;
9948843606;45.8804605;10.7618489;POINT (10.7618489 45.8804605);B&B Ai Casai;guest_house;Via Belvedere;Ledro;38067;9;;;;https://www.ledroholiday.it;;ledrocasai@gmail.com
9948852837;45.880936;10.7513533;POINT (10.7513533 45.880936);Tulipa Natural Home;hotel;Via San Michele;Ledro;38067;4;;;;https://www.tulipanaturalhome.com;+39 370 3635151;tulipanaturalhome@gmail.com
9951593620;46.4906985;11.7072689;POINT (11.7072689 46.4906985);Rifugio Micheluzzi;alpine_hut;;;;;regional;;;https://www.rifugiomicheluzzi.it/;+39 0462 750050;info@rifugiomicheluzzi.it
9955037708;45.8713925;10.7729981;POINT (10.7729981 45.8713925);Hotel Le tre oche;hotel;Via Maffei;Ledro;38067;37;;;;;+39 0464 509062;
9957060007;45.8721052;10.7706293;POINT (10.7706293 45.8721052);Garnì Rosa;hotel;Via Maffei;Ledro;38067;81;;;;;;
9960197217;46.1664839;11.8275786;POINT (11.8275786 46.1664839);El mondin;hotel;;;38054;;;;;https://elmondin.it/;+39 348 9734 780;info@elmondin.it
9960430412;45.9108724;10.9069603;POINT (10.9069603 45.9108724);Bed & breakfast Agli ulivi;guest_house;Via Cacciatore;Arco;38062;16b;;;;;;
9963853756;46.0093727;11.290479;POINT (11.290479 46.0093727);Hotel Dolomiti;hotel;Traversa Lido;Levico Terme;38056;8;;;;http://www.hoteldolomitilevico.com/;;
9971666887;46.1663731;11.0044605;POINT (11.0044605 46.1663731);Hotel Melchiori;hotel;Via Fovo;Andalo;38010;3;;;;;;
9971670753;46.1665366;11.0049138;POINT (11.0049138 46.1665366);Hotel Pavone;hotel;;;;;;;;;;
9971758522;45.8892198;10.7318385;POINT (10.7318385 45.8892198);B & B Galet;guest_house;Via Teresa Spagnolli;Ledro;38067;2;;;;http://www.galetledro.it;;oriettazecc@gmail.com
9971758523;45.8892331;10.731591;POINT (10.731591 45.8892331);Albergo Alpino;hotel;Via Pier Antonio Cassoni;Pieve di Ledro;38067;16;;;;https://www.hotelgarnialpino.com/it/;+39 0464 591034;
9987938357;46.3737349;10.8781208;POINT (10.8781208 46.3737349);Residence Bonetti;chalet;;;;;;;;;;
10001080208;45.8979786;10.8405412;POINT (10.8405412 45.8979786);B&B Casa Baltera;guest_house;Via Baltera;Riva del Garda;38066;25;;;;https://www.casabaltera.com/;+39 0464 578118;casabaltera@gmail.com
10003537399;46.0540959;11.1207856;POINT (11.1207856 46.0540959);BB ressidenza Iris;guest_house;Via San Pio X;Trento;38122;;;;;https://www.beb-trento.it/;+39 340 8669043;
10010733340;45.8652525;10.8043469;POINT (10.8043469 45.8652525);Pia Casa dell'Incoronata;hotel;Via della Madonna;Ledro;38067;2;;;;https://www.piacasadellincoronata.it/;+39 0464 509004;p.c.incoronata.biacesa@virgilio.it
10011362817;46.1627035;11.0074374;POINT (11.0074374 46.1627035);La Perla;hotel;Via Clamer;;38010;17;;;;https://www.laperlahotel.net/;;
10035794989;45.8891869;10.7302416;POINT (10.7302416 45.8891869);Hotel Silvana;hotel;Via Nuova;Ledro;38067;6;;;;https://www.albergosilvanaledro.it/;+39 0464 591068;info@albergosilvanaledro.it
10314923686;45.9503347;11.2636417;POINT (11.2636417 45.9503347);Caminetto mountain resort;hotel;;;;61;;;;;;
10616531558;45.7825924;10.9425846;POINT (10.9425846 45.7825924);Fabilia Family Hotel Polsa;hotel;;;;;;;;;;
10728486556;46.4256881;11.1584584;POINT (11.1584584 46.4256881);Villa Belfiore;hotel;Via Roen;;;6;;;;http://www.villa-belfiore.it;;
10728571812;46.4279714;11.1546462;POINT (11.1546462 46.4279714);HVAR Hotel Villa Argentina Ronzone;hotel;Via Mendola;Ronzone;38010;42;;;;;+39 379 120 3805;
10732974154;46.2961233;11.786722;POINT (11.786722 46.2961233);Hotel Alpenrose;hotel;;;;;;;;https://villagehotel.it;;
10767085662;46.1704863;11.095722;POINT (11.095722 46.1704863);Agritur Lavanda;guest_house;Località Albera Pina;Terre d'Adige;38097;2a;;;Azienda Agricola Roncador Mariano;;;
10773666746;46.1130512;11.1344759;POINT (11.1344759 46.1130512);Maso Librar;guest_house;;;;;;;;https://agriturmasolibrar.it;;
10813258871;46.1912193;11.1602024;POINT (11.1602024 46.1912193);La Fagitana;guest_house;Via Case Sparse;Faedo;38010;13;;;;;+39 329 762 0428;
10814819605;46.0618829;11.1150612;POINT (11.1150612 46.0618829);Habitat;guest_house;;;;;;;;;;
10945682231;46.1588351;11.1152477;POINT (11.1152477 46.1588351);Agritur Maso Tratta;guest_house;;;;;;;;http://www.masotratta.net;;
10945682232;46.158038;11.1142663;POINT (11.1142663 46.158038);Agritur Maso Grener;guest_house;;;;;;;;https://www.masogrener.it;;
10995069806;46.3651495;11.0325875;POINT (11.0325875 46.3651495);B&B Casa Redolfi;hotel;;;;;;;;;;
11010942890;46.2069457;11.8283217;POINT (11.8283217 46.2069457);Rifugio Petina;alpine_hut;;;;;;;;;;
11058054898;46.2638974;11.8016995;POINT (11.8016995 46.2638974);Hotel Colbricon;hotel;Via Passo Rolle;San Martino di Castrozza;38054;229;;;;https://www.hotelcolbricon.it/;;
11079071705;46.0817513;11.1148727;POINT (11.1148727 46.0817513);Sole&Luna Apartment;chalet;;;;;;;;;;
11090941789;46.0715959;11.1247737;POINT (11.1247737 46.0715959);Locanda Le Due Travi;guest_house;;;;;;;;https://www.locandaleduetravi.it/;;
11126265130;46.159724;11.296417;POINT (11.296417 46.159724);B&B La Balbina;guest_house;;;;;;;;;;
11140407136;46.0728678;11.1493796;POINT (11.1493796 46.0728678);Villa Madruzzo;hotel;Via Ponte Alto;Trento;38121;26;;;;https://www.villamadruzzo.com/;;
11165402518;45.8807165;10.8547268;POINT (10.8547268 45.8807165);MyLago;hotel;Via Franz Kafka;Riva del Garda;38066;1;;;;;;
11180621537;46.1300525;10.7569713;POINT (10.7569713 46.1300525);Palazzo Lodron Bertelli;hotel;Piazza S. Antonio;;38080;8;;;;https://www.palazzolodronbertelli.it/;"+393387711307;+393358754925";info@palazzolodronbertelli.it
11273005409;46.0294727;11.3750067;POINT (11.3750067 46.0294727);Sosta Camper Trentino;caravan_site;Via Belvedere;Novaledo;38050;7;;Camping per soste e campeggio di: camper, roulotte, bikepackers, bikers. Piazzole e servizi per la tua vacanza in Trentino plein air.;;https://www.sostacampertrentino.it;+39 344 8305 4908;
11288162477;46.2939896;11.4174206;POINT (11.4174206 46.2939896);B&B Casa Giovannelli;hotel;;;;;;;;;;
11293640372;46.0620022;11.0964295;POINT (11.0964295 46.0620022);La casa delle farfalle;guest_house;Via ai Dineri;Trento;38123;8;;;;;;
11299909649;46.13855;11.1139129;POINT (11.1139129 46.13855);Albergo Ristorante Corona;hotel;;;;;;;;;;
11333016596;46.3620609;11.0427269;POINT (11.0427269 46.3620609);B&B Incanto;guest_house;Via Maiano;Cles;38023;11;;;;http://www.incantocles.it/;;incantocles@gmail.com
11375777737;46.0678589;11.1213123;POINT (11.1213123 46.0678589);Boutique Aquila d'oro;guest_house;Via Rodolfo Belenzani;;;76;;;;;;
11498496594;45.8933235;10.6887638;POINT (10.6887638 45.8933235);Hotel Locanda alla Perla;hotel;Via Giuseppe Garibaldi;Ledro;38067;73;;;;https://www.allaperla.it/;;
11499418169;46.2858715;11.5474226;POINT (11.5474226 46.2858715);Regina delle Dolomiti;hotel;;;;;;;;;;
11505383933;45.8896801;10.6694568;POINT (10.6694568 45.8896801);Camping Albergo Casavecchia;hotel;Via Guglielmo Marconi;Ledro;38067;11;;;;https://www.campingcasavecchia.it/;+39 0464 596184;info@campingcasavecchia.it
11510438368;45.8924321;10.7009959;POINT (10.7009959 45.8924321);Azienda agricola Pinabel;guest_house;Via Giacomo Cis;Ledro;38067;2;;;;;+39 349 3212193;
11518961593;45.8998337;10.7249073;POINT (10.7249073 45.8998337);Hotel Prealpi;hotel;Via III Novembre;Ledro;38067;10;;;;https://www.leprealpiledro.it/;;info@leprealpiledro.it
11524113630;45.9014612;10.7252511;POINT (10.7252511 45.9014612);Family Hotel Adriana;hotel;Via Doghen;Ledro;38067;3;;;;https://www.hotel-adriana.it;+39 0464 591184;info@hotel-adriana.it
11527408837;45.922214;10.7248278;POINT (10.7248278 45.922214);Campo Scout Val di Concei;camp_site;;Ledro;38067;;;;;;;sierraledro@yahoo.it
11528032047;45.9087218;10.7292189;POINT (10.7292189 45.9087218);B&B Villa Cinzia;guest_house;Via di Gornòa;Ledro;38067;3;;;;https://bbvillacinzialedro.it/;+39 0464 591792;info@bbvillacinzialedro.it
11533721968;45.9114433;10.726124;POINT (10.726124 45.9114433);Hotel Cadria;hotel;Via Unità d'Italia;Ledro;38067;25;;;;https://www.hotelcadria.it/;+39 0464 591136;hotelcadria@hotmail.com
11545395869;45.7431456;10.9688529;POINT (10.9688529 45.7431456);Unnamed;caravan_site;;;;;;;;;;
11559810330;46.2168591;11.0457406;POINT (11.0457406 46.2168591);B&b Paganella;guest_house;;;;;;;;;;
11572083717;45.8951395;10.8884431;POINT (10.8884431 45.8951395);Unnamed;caravan_site;;;;;;;;;;
11630972416;45.9116097;10.9108713;POINT (10.9108713 45.9116097);La Villa;guest_house;Località Gazzi;Arco;38062;8;;;;;;
11690585026;45.8896247;11.009921;POINT (11.009921 45.8896247);BeB Anna;guest_house;Via Mazzole;Isera;;3;;;;http://bebanna.tn.it/;+39 392 45 20 513;beb.anna@virgilio.it
11727717089;45.8876456;11.0451622;POINT (11.0451622 45.8876456);Casa Bettini;guest_house;Via della Terra;;;41;;;;;+39 347 105 1839;
11755659751;46.031474;11.0258164;POINT (11.0258164 46.031474);Pra dela Lori;alpine_hut;;;;;;;;;;
11760235919;46.2253316;10.8282922;POINT (10.8282922 46.2253316);Residence Living Brenta;hotel;Via Vallesinella;;;3;;;;;;
11762486173;45.9575281;11.0317647;POINT (11.0317647 45.9575281);Area sosta Bellaria;caravan_site;;;;;;;;;;
11800052013;46.3761818;11.6590101;POINT (11.6590101 46.3761818);Hotel Moena;hotel;;;;;;;;;;
11837596944;45.920694;10.8991566;POINT (10.8991566 45.920694);Agriturismo La Terra;guest_house;Via Cappuccini;Arco;38062;6;;;;https://www.agriturlaterra.it/;+39 0464 357695;contact@agriturlaterra.it
11913560069;45.8874574;11.0346356;POINT (11.0346356 45.8874574);Convitto universitaria opera armida barelli;hostel;Via della Gora;;38068;9;;;;;+39 345 397 7312;
11945003419;45.9122059;11.1637856;POINT (11.1637856 45.9122059);Longanorbait B&B;guest_house;;Folgaria;;34;;;;;;
11949825659;46.4644151;11.7169262;POINT (11.7169262 46.4644151);Soggiorno Dolomiti;hotel;Strèda Madona de Lourdes;Mazzin;38030;718;;;;https://www.soggiornodolomiti.it/;+39 462 767351;
11978681073;45.9194904;10.8841566;POINT (10.8841566 45.9194904);Locanda 53;guest_house;Via Vergolano;Arco;38062;53;;;;https://www.locanda53.it/;;info.locanda53@gmail.com
12001435125;46.1513417;11.8018913;POINT (11.8018913 46.1513417);Miramonti;hotel;Via Dolomiti;;;40;;;;http://www.hotelmiramontimer.com;+39 0439 67127;info@hotelmiramontimer.com
12001435807;46.1069715;11.77405;POINT (11.77405 46.1069715);Albergo Al Lago;hotel;Via Nazionale;Pontet;38050;9;;;;;;
12012237594;45.8673623;10.9432056;POINT (10.9432056 45.8673623);B&B Cà dei Fazzilisti;guest_house;Località Pizzole;Valle San Felice;38065;2;;;;https://www.fazzilisti.it/;;ca.fazzilisti@cimonetti.it
12055042970;46.4173436;11.6767254;POINT (11.6767254 46.4173436);Villa Rosa;chalet;;;;;;;;;;
12058827424;46.0642309;11.2467581;POINT (11.2467581 46.0642309);Unnamed;caravan_site;Via Luigi Senesi;Pergine Valsugana;38057;;;;;;;
12076568468;46.2333382;10.8252574;POINT (10.8252574 46.2333382);Zeni hotel;hotel;;;;;;;;;;
12082266442;45.8531947;10.9679354;POINT (10.9679354 45.8531947);Villa Cameras;guest_house;Via del Garda;Mori;38065;85;;;;;;
12092372526;45.8956025;10.8429661;POINT (10.8429661 45.8956025);B&B Marigold;guest_house;Via dell'Albola;Riva del Garda;38066;85;;;;https://www.bbmarigold.com/;;
12097412312;46.2257444;10.8262008;POINT (10.8262008 46.2257444);Rosengarten hotel;hotel;;;;;;;;;;
12165512414;46.049711;11.2343639;POINT (11.2343639 46.049711);Unnamed;caravan_site;;;;;;;;;;
12189271278;46.0013815;11.2626476;POINT (11.2626476 46.0013815);Caldonazzo Dog Sport & Wellness;guest_house;Via Andanta;Caldonazzo;38052;30;;;;https://www.machevitadacani.it/bed-breakfast/struttura-ed-esperienze;+39 35 1976 4443;info@machevitadacani.it
12286096015;46.461579;11.8100037;POINT (11.8100037 46.461579);Unnamed;camp_site;;;;;;;;;;
12309608139;46.0530979;11.4577916;POINT (11.4577916 46.0530979);San Giorgio Rooms;guest_house;Vicolo Ioris;;;2;;;;;;
12310387784;45.9209963;10.8829053;POINT (10.8829053 45.9209963);Arco Gaia Apartments;guest_house;Via del Parco;Arco;38062;4;;Casa per Vacanze;;https://arcogaia.blogspot.com;+39 0464 531884;
12318171923;46.0977048;11.0175898;POINT (11.0175898 46.0977048);Agricampeggio da Bery;camp_site;;;;;;;;https://agricampeggiodabery.it/;+39 345 8503996;info@agricampeggiodabery.it
12321139104;45.9731665;10.5538314;POINT (10.5538314 45.9731665);Unnamed;camp_site;;;;;;;;;;
12328452236;46.3374721;11.0625578;POINT (11.0625578 46.3374721);B&B Angela;guest_house;;;;;;;;;;
12347731210;46.4287906;11.1555621;POINT (11.1555621 46.4287906);Hotel Regina del Bosco;hotel;;;;;;;;;;
12389967734;46.0300585;10.9245489;POINT (10.9245489 46.0300585);Rifugio Don Zio Pisoni;alpine_hut;;;;;;;Società degli Alpinisti Tridentini;https://www.sat.tn.it/rifugio-don-zio-pisoni-al-monte-casale/;+39 3453094967;rifugiodonziopisoni@gmail.com
12430843295;46.2376308;10.8194423;POINT (10.8194423 46.2376308);Super G Italian Mountain Club - Campiglio;alpine_hut;;;;;;;;;;
12446955093;45.9063501;11.1856994;POINT (11.1856994 45.9063501);Hotel Seggiovia;hotel;;Folgaria;38064;32;;;Port Roberto & C. sas;https://www.hotelseggioviafolgaria.it/;+39 0464/721179;info@hotelseggioviafolgaria.it
12500373821;46.0537237;11.45886;POINT (11.45886 46.0537237);La Casa sul Brenta;guest_house;;;;;;;;;;
12534103662;46.1619626;11.0021109;POINT (11.0021109 46.1619626);Residence 2000;hotel;;;;;;;;https://residence2000.it/it/;+39 0461 585711;residence.2000@tin.it
12534103663;46.1621915;11.0022616;POINT (11.0022616 46.1621915);Hotel Continental;hotel;Via Laghet;Andalo;38010;2;;;;http://www.htlcontinental.it/;+39 0461 585689;info@htlcontinental.it
12534103664;46.1641188;11.0013496;POINT (11.0013496 46.1641188);Residence Alba Nova;hotel;Via Dossi;Andalo;38010;7;;;;http://www.albanova.info/;+39 0461 585884;info@albanova.info
12534103665;46.1642801;11.0007701;POINT (11.0007701 46.1642801);Hotel Pier;hotel;Via Le Val;Andalo;38010;4;;;;http://www.pierhotel.net/;+39 0461 585784;info@pierhotel.net
12534103666;46.1638531;11.0015198;POINT (11.0015198 46.1638531);Hotel Bass;hotel;Via Le Val;Andalo;38010;2;;;Ghezzi Arturo;http://www.basshotelandalo.com/;+39 0461 585560;info@basshotelandalo.com
12534103668;46.1636178;11.0006598;POINT (11.0006598 46.1636178);Hotel Diana;hotel;Via Ponte Lambin;Andalo;38010;16;;;Ghezzi Arturo;http://www.hoteldianaandalo.com/;+39 0461 585733;info@hoteldianaandalo.com
12534103670;46.1633008;11.0015591;POINT (11.0015591 46.1633008);Hotel Garnì La Roccia;hotel;Via Ponte Lambin;Andalo;38010;;;;;http://www.larocciaandalo.it/;+39 0461 585767;info@larocciaandalo.it
12534103671;46.1647634;11.0017132;POINT (11.0017132 46.1647634);Hotel Select;hotel;Via Dossi;Andalo;38010;7;;;;http://www.hselect.it/;+39 0461 585884;info@hselect.it
12534103672;46.1646983;11.0038577;POINT (11.0038577 46.1646983);Hotel Alia Bianca Active & Family;hotel;Via don Faustino Tenaglia;Andalo;38010;12;;;;http://www.hotelbottamedi.it/;+39 0461 585831;info@hotelbottamedi.it
12534103673;46.1644146;11.0042687;POINT (11.0042687 46.1644146);Hotel Paganella;hotel;Via Paganella;Andalo;38010;1;;;;http://www.hotelpaganella.com/;+39 0461 585844;info@hotelpaganella.com
12534103675;46.1643768;11.005955;POINT (11.005955 46.1643768);Hotel Andalo;hotel;Via Paganella;Andalo;38010;7;;;;http://www.hotel-andalo.info/;+39 0461 585849;hotelandalo@13maggio.com
12534103676;46.163763;11.0049313;POINT (11.0049313 46.163763);Hotel K2;hotel;Via Rindole;Andalo;38010;2;;;;http://www.k2andalo.it/;+39 0461 585880;info@k2andalo.it
12534103677;46.1634927;11.0050703;POINT (11.0050703 46.1634927);Sassdei My Active Suite Hotel;hotel;;;;;;;;www.hotelsassdeiandalo.it;+39 0461 585421;info@hotelsassdeiandalo.it
12534103678;46.1638152;11.0064046;POINT (11.0064046 46.1638152);Hotel Cristallo;hotel;Via Rindole;Andalo;38010;1;;;;http://www.hotelcristalloandalo.com/;+39 0461 585744;info@hotelcristalloandalo.com
12534103679;46.1649632;11.0061623;POINT (11.0061623 46.1649632);Hotel Nordik;hotel;Via Paganella;Andalo;38010;11;;;;http://www.hotelnordik.com/;+39 0461 585879;info@hotelnordik.com
12534103680;46.1661678;11.0054281;POINT (11.0054281 46.1661678);Hotel Cavallino Lovely Hotel;hotel;Via don Faustino Tenaglia;Andalo;38010;9;;;;http://www.hotelcavallino.com/;+39 0461 585701;info@hotelcavallino.com
12534103682;46.1665008;11.0037503;POINT (11.0037503 46.1665008);Hotel Ghezzi;hotel;Viale Trento;Andalo;38010;12;;;;http://www.ghezzihotel.com/;+39 0461 585803;info@ghezzihotel.com
12534103683;46.165512;11.002476;POINT (11.002476 46.165512);Park Hotel Sport - Andalo;hotel;;;;;;;;;;
12534103684;46.1654609;11.0020228;POINT (11.0020228 46.1654609);Hotel Dal Bon;hotel;Via Dossi;Andalo;38010;4;;;;http://www.hoteldalbon.com/;+39 0461 585839;info@hoteldalbon.com
12534103685;46.1658562;11.0015487;POINT (11.0015487 46.1658562);Residence Lambin;hotel;Via Crosare;Andalo;38010;11a;;;;http://www.residencelambin.it/;+39 0461 589173;info@residencelambin.it
12534103686;46.1661696;11.0013562;POINT (11.0013562 46.1661696);Hotel Rosa Alpina;hotel;Via Crosare;Andalo;38010;11;;;;http://www.hotelrosaalpina.com/;+39 0461 585874;info@hotelrosaalpina.com
12534103687;46.1662228;11.0023246;POINT (11.0023246 46.1662228);Astoria Comfort Hotel;hotel;Via Crosare;Andalo;38010;7;;;;http://www.astoria-andalo.com/;+39 0461 585846;info@astoria-andalo.com
12534103688;46.1665939;11.0027392;POINT (11.0027392 46.1665939);Hotel Stella Alpina;hotel;Via Priori;Andalo;38010;2;;;;http://www.hotelstellaalpina.net/;+39 0461 585835;info@hotelstellaalpina.net
12534103689;46.1677539;11.0026956;POINT (11.0026956 46.1677539);Ambiez Suite Hotel;hotel;Via Priori;Andalo;38010;8;;;;http://www.hotelambiez.com/;+39 0461 585556;info@hotelambiez.com
12534103690;46.1678363;11.0020461;POINT (11.0020461 46.1678363);Alpino Family Hotel;hotel;Via Priori;Andalo;38010;;;;;http://www.alpinofamily.it/;+39 0461 585946;alpino@alpinofamily.it
12534103691;46.1676094;11.0037257;POINT (11.0037257 46.1676094);Hotel La Bussola;hotel;Viale Trento;Andalo;38010;11;;;;http://www.hotellabussola.com/;+39 0461 585888;info@hotellabussola.com
12534103692;46.1673124;11.0030555;POINT (11.0030555 46.1673124);Hotel Al Plan;hotel;Viale Trento;Andalo;38010;5;;;;http://www.hotelalplan.com/;+39 0461 585962;info@hotelalplan.com
12534103693;46.1675771;11.0014205;POINT (11.0014205 46.1675771);Dolce Avita;hotel;Via del Moro;Andalo;38010;1;;;;http://www.hoteldolceavita.it/;+39 0461 585912;info@hoteldolceavita.it
12534103694;46.1671254;10.9993035;POINT (10.9993035 46.1671254);Piccolo Hotel;hotel;Via Pegorar;Andalo;38010;2;;;Famiglia Viola;http://www.piccolo.it/;+39 0461 585710;piccolo@piccolo.it
12534103697;46.1710492;11.0073916;POINT (11.0073916 46.1710492);Garden;hotel;Viale Trento;Andalo;38010;19;;;;http://www.gardenandalo.com/;+39 0461 585870;info@gardenandalo.com
12534103700;46.1684718;11.002328;POINT (11.002328 46.1684718);Hotel Negresco;hotel;Via Priori;Andalo;38010;;;;;http://www.hotelnegrescoandalo.it/;+39 0461 585555;info@hotelnegrescoandalo.it
12534103801;46.1681751;11.0030453;POINT (11.0030453 46.1681751);Hotel Garnì Fiordaliso;hotel;Via Priori;Andalo;38010;;;;Famiglia Rigotti;http://www.hotelfiordaliso.com/;+39 0461 589027;hotelfiordaliso@tin.it
12534103802;46.166869;11.0074323;POINT (11.0074323 46.166869);Hotel Angelo;hotel;;;;;;;;;;
12534103803;46.1680525;11.0075783;POINT (11.0075783 46.1680525);Hotel Alpen;hotel;Via San Rocco;Andalo;38010;15;;;;http://www.hotelalpen.it/;+39 0461 585780;info@hotelalpen.it
12534103804;46.1674104;11.0085052;POINT (11.0085052 46.1674104);Hotel Gruppo Brenta;hotel;Via Strigole;Andalo;38010;1;;;;http://www.gruppobrenta.it/;+39 0461 585813;info@gruppobrenta.it
12534103805;46.1667287;11.0101357;POINT (11.0101357 46.1667287);"Hotel Costaverde ""ai Roni""";hotel;Via Roni;Andalo;38010;4;;;;;;
12534103806;46.1662723;11.0096802;POINT (11.0096802 46.1662723);Hotel Pian Castello;hotel;Via Strigole;Andalo;38010;6;;;;http://www.hotelpiancastello.com/;+39 0461-585609;info@hotelpiancastello.com
12534103807;46.1627415;11.0083385;POINT (11.0083385 46.1627415);Hotel La Baita;hotel;Via Monego;Andalo;38010;1;;;;http://www.hotelbaita.it/;+39 0461 585841;info@hotelbaita.it
12534385763;46.166722;11.0007393;POINT (11.0007393 46.166722);Hotel Allo zodiaco;hotel;Via Crosare;Andalo;38010;20;;Hotel 3 Stelle situato in posizione privilegiata, a pochi passi dal centro, nelle immediate vicinanze dell'attrezzatissima zona Parco/Sportiva e a 5 minuti dagli impianti sciistici;;https://www.allozodiaco.com;+39 0461 585667;info@allozodiaco.com
12534798828;46.1668345;11.0069385;POINT (11.0069385 46.1668345);Hotel Eden Family & Wellness Resort;hotel;Via Paganella;Andalo;38010;25;;;;;;
12534798830;46.1634567;11.0028721;POINT (11.0028721 46.1634567);Hotel Iris;hotel;Piazza Dolomiti;Andalo;;;;;;;+39 0461 585800;info@hotelirisandalo.it
12534798833;46.1650041;11.0010327;POINT (11.0010327 46.1650041);Alp Hotel Milano;hotel;Via Dossi;Andalo;38010;8;;;;http://www.alphotelmilano.it/;+39 0461 585731;info@alphotelmilano.it
12534798834;46.1630661;11.0032754;POINT (11.0032754 46.1630661);Residence Cime d'Oro;hotel;Via Perli;Andalo;38010;26;;;;http://www.residencecimedoro.it/;+39 0461 585615;info@residencecimedoro.it
12534798835;46.165166;11.0038535;POINT (11.0038535 46.165166);Hotel Adler;hotel;Piazza Centrale;Andalo;38010;2;;;;http://www.adlerhotel.it/;+39 0461 585828;info@adlerhotel.it
12534798836;46.164521;10.9876695;POINT (10.9876695 46.164521);Pian dei Sarnacli;chalet;;;;;;;;;;
12534798837;46.1659044;10.9998463;POINT (10.9998463 46.1659044);Hotel Serena;hotel;Via Crosare;Andalo;38010;15;;;;http://www.hotelserena.it/;+39 0461 585727;info@hotelserena.it
12534798839;46.1646959;11.002607;POINT (11.002607 46.1646959);Grand Hotel Piz Galin;hotel;Via Dossi;Andalo;38010;1;;;;https://www.pizgalin.it/;+39 0461 585837;info@pizgalin.it
12534798840;46.1658903;11.0086492;POINT (11.0086492 46.1658903);Hotel Splendid;hotel;;;;;;;;;+39 0461 585777;info@splendidhotelandalo.it
12534798842;46.1652618;11.0016259;POINT (11.0016259 46.1652618);Corona Dolomites Hotel;hotel;Via Dossi;Andalo;38010;6;;;Pancher Anna & C. S.a.s.;https://www.coronadolomiteshotel.com;+39 0461 186 0322;info@coronadolomiteshotel.com
